TempleName,LordGod,Area,Address,lat,long
´I¦w®c,¤­©²¤d·³,¹Å¸q¿¤,¹Å¸q¿¤ªF¥Û¶m°ÆÃu§ø6¾F57¸¹,23.4852917,120.1725488
°ê©m¼q,©µ¥­°p¤ý,¹Å¸q¿¤,¹Å¸q¿¤ªF¥Û¶m·á¾ð§ø4¾F35¤§2¸¹,23.460151,120.154219
²Â´ä¤f´ä¤f®c,¤Ñ¤W¸t¥À,¹Å¸q¿¤,¹Å¸q¿¤ªF¥Û¶m´ä¤f§ø¤K¾F¤­¸¹,23.4953495,120.1860318
ºÖ¦w®c,¤­©²¤d·³,¹Å¸q¿¤,¹Å¸q¿¤ªF¥Û¶m«¬­í§ø10¾F109¸¹,23.4800864,120.161817
ÀÙ¿³®c,«O¥Í¤j«Ò,¹Å¸q¿¤,¹Å¸q¿¤±ö¤s¶m¤T¬üÉÜ±ö¥_§ø¤G¤Q¤G¸¹,23.588377,120.543666
²M¼w¦x,Æ[­µ¦ò¯ª,¹Å¸q¿¤,¹Å¸q¿¤ªF¥Û¶m´äáY§ø1¾F102¸¹,23.460065,120.2123698
´¶ÀÙ¦x,«nµL¦òÙSÆ[¥@­µµÐÂÄ,¹Å¸q¿¤,¹Å¸q¿¤ªF¥Û¶m¤T®a§ø5¸¹¤§8,23.467659,120.1720151
ÁIªL¦x,ÄÀ­{¦ò¯ª,¹Å¸q¿¤,¹Å¸q¿¤±ö¤s¶m¦`¥_§ø¤@¾F¤G¤Q¤§¤@¸¹,23.578261,120.571229
«O¦w®c,¨·¤ý·Ý,¹Å¸q¿¤,¹Å¸q¿¤ªF¥Û¶m´x¼æ§ø3¾F34¸¹,23.4187786,120.1652732
Á{¤ô®c,¤T¥¤¤Ò¤H,¹Å¸q¿¤,¹Å¸q¿¤ªF¥Û¶m¾¤©úªF¥Û§ø20¾F5¸¹,23.4541141,120.147184
¹C¤Ñ®c,¦D©²¤d·³,¹Å¸q¿¤,¹Å¸q¿¤ªF¥Û¶m¤Ù¤lÀY¥Ã¤Ù§ø1¾F8¸¹ªþ1,23.462718,120.171652
¶³Às®c,¦À©²¤d·³,¹Å¸q¿¤,¹Å¸q¿¤ªF¥Û¶m³»´¥¤p¬q³»¤l¼d172¸¹,23.4965455,120.2058218
¤j²³·Ý¼q,¤j²³·Ý,¹Å¸q¿¤,¹Å¸q¿¤ªF¥Û¶m´x¼æ§ø11¾F¥Õ¤ô´ò27¸¹ªþ9,23.4239178,120.1653956
¼z¤s©¥,Æ[­µ¦ò¯ª,¹Å¸q¿¤,¹Å¸q¿¤±ö¤s¶mºÑ´ò§øÔ³¤ØÀ­¤E¤§¤@¸¹,23.564602,120.624413
ÁI¶³¦x,ÄÀ­{¦È¥§¦ò,¹Å¸q¿¤,¹Å¸q¿¤±ö¤s¶mºÑ´ò§ø·Ë§À¼d¤»¸¹ªþ¤G,23.566967,120.640371
¶ê©ú¦x,ÄÀ­{¦ò¯ª,¹Å¸q¿¤,¹Å¸q¿¤ªF¥Û¶m¶ó¥J§ø3¾F69¸¹,23.4400452,120.1733631
ºÖ¦w®c,·Å©²¤d·³,¹Å¸q¿¤,¹Å¸q¿¤ªF¥Û¶m·Ë¤U§ø10¾F1¸¹,23.4802778,120.1963889
¯uªZ®c,¥È¤Ñ¤W«Ò,¹Å¸q¿¤,¹Å¸q¿¤±ö¤s¶m¶@¦w¼d¦w¹t§ø¥|¤Q¤T¸¹,23.54504,120.578459
¥Ã¿³®c,ºÖ¼w¥¿¯«,¹Å¸q¿¤,¹Å¸q¿¤±ö¤s¶m¥Í¤ò¾ð·ç®p§ø¤­¾F25¤§1¸¹,23.5582577,120.6653151
ºÖ®ü®c,§õ©²¤d·³,¹Å¸q¿¤,¹Å¸q¿¤ªF¥Û¶m¶ó´ä§ø12¾F28¸¹ªþ1,23.4675034,120.1468408
ªQ´ò®c,¤­©²¤d·³,¹Å¸q¿¤,¹Å¸q¿¤ªF¥Û¶m¤UçrªQçrªQ§ø3¾F44¸¹,23.472837,120.216363
Âí¦w®c,¿c©²¤d·³,¹Å¸q¿¤,¹Å¸q¿¤ªF¥Û¶mºô¼d§ø10¾F32¸¹,23.4365422,120.1525427
¤Tªk®c,¤Ó¤W¦Ñ§g,¹Å¸q¿¤,¹Å¸q¿¤ªF¥Û¶m¤U´¥§ø14¾F67¤§2¸¹,23.483346,120.201794
Às¿³®c,¥È¤Ñ¤W«Ò,¹Å¸q¿¤,¹Å¸q¿¤±ö¤s¶mÀs²´§ø¤E¾F¤T¤§¤@¸¹,23.577185,120.616998
ª×Às´ä¥N¤Ñ©²,§õ©²¤d·³,¹Å¸q¿¤,¹Å¸q¿¤ªF¥Û¶m¬w¥J§ø4¾F44¸¹¤§1,23.451541,120.194494
ÆF·O®c,¶}¥x¸t¤ý,¹Å¸q¿¤,¹Å¸q¿¤ªF¥Û¶m®ß¤l±[¦è±[§ø4¾F97¸¹,23.4261255,120.1881525
Âí¦w®c,ºÖ¼w¥¿¯«,¹Å¸q¿¤,¹Å¸q¿¤±ö¤s¶m¾î¤s±ö¥_§ø¤@¸¹,23.591164,120.54337
¹Å¸q¸tÆF¤s­×½t´ò¦a¥À¼q,µL¤WµêªÅ¦a¥À·O´L,¹Å¸q¿¤,¹Å¸q¿¤±ö¤s¶m§|¤f¤j«n§ø¤Q¾F¤@¤§¤G¸¹,23.548976,120.561619
¥ÉÃ·®c,¥È¤Ñ¤W«Ò,¹Å¸q¿¤,¹Å¸q¿¤±ö¤s¶m¤j¯ó®H¤j«n§ø¤T¾F¤T¤Q¤»¸¹,23.5580691,120.554204
¶}¤Ñ¦x,¤T¦ò¯ª,¹Å¸q¿¤,¹Å¸q¿¤ªF¥Û¶m·á¾ð§ø1¾F6¤§7¸¹,23.458134,120.150107
¸Uµ½¦P©~,³¯¥D«Ó,¹Å¸q¿¤,¹Å¸q¿¤ªF¥Û¶m¶ó´ä§ø1¾F204¸¹,23.471049,120.145914
Às¿³®c,¤Ó¤l·Ý,¹Å¸q¿¤,¹Å¸q¿¤±ö¤s¶mªF¿³µó±öªF§ø¤G¤Q¤T¾F¤@¤T¤C¸¹,23.583845,120.561538
¥¿ªZ®c,¥È¤Ñ¤W«Ò,¹Å¸q¿¤,¹Å¸q¿¤±ö¤s¶m³»Âù·ËÂù·Ë§ø¤T¾F¤G¤Q¤G¸¹,23.557402,120.534065
«O¦w®c,¨·¤ý,¹Å¸q¿¤,¹Å¸q¿¤ªF¥Û¶m¶ó´ä§ø2¾F,23.4680751,120.1488264
¤Ó­ì®c,¼s¿A´L¤ý,¹Å¸q¿¤,¹Å¸q¿¤±ö¤s¶m³Â¶é¼d¦`¥_§ø¤T¾F¤E¸¹,23.576853,120.571911
©^¦w®c,¼B©²¤¸«Ó,¹Å¸q¿¤,¹Å¸q¿¤ªF¥Û¶m´x¼æ§ø7¾F¥Õ¤ô´ò11¸¹ªþ1,23.4239178,120.1653956
¼yºÖ®c,ª÷¤ý·Ý,¹Å¸q¿¤,¹Å¸q¿¤ªF¥Û¶mÀs´ä§ø13¾F112¸¹,23.4813448,120.1793874
ªF´ä·Ë¦w®c,«°¶ª·Ý,¹Å¸q¿¤,¹Å¸q¿¤¥¬³UÂí®H¥J­íªF´ä¨½23¾F227¸¹ªþ1,23.376891,120.192483
¤j²³·Ý¼q,¤j²³·Ý¤½,¹Å¸q¿¤,¹Å¸q¿¤¥¬³UÂí¦Ò¸Õ¼æ¬q¦Ò¸Õ¨½1¾F579¸¹,23.397494,120.200752
ºÖ¦w®c,¦À©²¤d·³,¹Å¸q¿¤,¹Å¸q¿¤ªF¥Û¶mªF±[§ø5¾F24¸¹,23.436041,120.196929
¤ô§À¥ÉªZ®c,¥È¤Ñ¤W«Ò,¹Å¸q¿¤,¹Å¸q¿¤±ö¤s¶m¤ô§À¤j«n§ø¤­¾F¤G¤Q¤G¸¹,23.554238,120.54491
ºÖ¦w®c,²W©²¤d·³,¹Å¸q¿¤,¹Å¸q¿¤ªF¥Û¶m¶ó¥J§ø13¾F5¸¹,23.4400452,120.1733631
¸tª÷¾Â,¤Ñ¤W¸t¥À,¹Å¸q¿¤,¹Å¸q¿¤ªF¥Û¶mºô¼d§ø1¾F3¤§2¸¹,23.4312762,120.1569457
¤EÀs¦¿¼q,¤T¤d·³,¹Å¸q¿¤,¹Å¸q¿¤ªF¥Û¶m´x¼æ§ø9¾F¥Õ¤ô´ò47¸¹ªþ1,23.4239178,120.1653956
¥ÃÆF®c,§õ©²¤d·³,¹Å¸q¿¤,¹Å¸q¿¤ªF¥Û¶m¥Ã¤Ù§ø5¾F43¸¹,23.4620124,120.1745091
¦Z¤s®c,¤Ñ¤W¸t¥À,¹Å¸q¿¤,¹Å¸q¿¤ªF¥Û¶m¤s¼d«¬­í§ø3¾F22¸¹ªþ2,23.47765,120.16591
·O¦w®c,¤­©²¤d·³,¹Å¸q¿¤,¹Å¸q¿¤ªF¥Û¶m¶ó¥J§ø5¾F48¸¹,23.4400452,120.1733631
¹Ø¤Ñ®c,±i¤ý,¹Å¸q¿¤,¹Å¸q¿¤ªF¥Û¶m÷´¹ª§ø2¾F64¤§2¸¹,23.4939944,120.172438
·O´f°ó,º½¦Àª÷¥À,¹Å¸q¿¤,¹Å¸q¿¤±ö¤s¶m¦w¹t§ø²Ð¦w¼d¤T¤Q¤G¸¹,23.5531006,120.5769958
®õ¿³©¥,Æ[­µ¦ò¯ª,¹Å¸q¿¤,¹Å¸q¿¤±ö¤s¶m¤Ó¿³§ø¥|¾F¥|¸¹,23.5424538,120.634285
«O¦w®c,§d©²¤T¤d·³,¹Å¸q¿¤,¹Å¸q¿¤ªF¥Û¶m«¬­í§ø11¾F136¸¹,23.4800864,120.161817
ÃÙ¤Ñ®c,§õ¤ý,¹Å¸q¿¤,¹Å¸q¿¤ªF¥Û¶m·á¾ð§ø3¾F24¸¹,23.4641647,120.1546002
«Ø¦w®c,¦D¤Ñ¤ý·Ý,¹Å¸q¿¤,¹Å¸q¿¤ªF¥Û¶m¤U´¥¤l¼d¤U´¥§ø2¾F121¸¹ªþ1,23.488077,120.198719
©¾¸q¦ò°ó,©ú©ú¤W«Ò,¹Å¸q¿¤,¹Å¸q¿¤ªF¥Û¶m°ÆÃu§ø171¤§1¸¹,23.4866405,120.1727251
®¶¿³®c,ºÖ¼w¥¿¯«,¹Å¸q¿¤,¹Å¸q¿¤±ö¤s¶m¤½¥Ð¤Ó©M§ø¤K¾F¤C¤§¤T¸¹,23.5346339,120.7068459
ºÖÆF®c,Æ[­µ¦ò¯ª,¹Å¸q¿¤,¹Å¸q¿¤ªF¥Û¶m¤T®a§ø8¾F73¤§3¸¹,23.4709613,120.1720769
«O¤¸®c,¥È¤Ñ¤W«Ò,¹Å¸q¿¤,¹Å¸q¿¤±ö¤s¶m¶}¤¸¦Z¹L¤s§ø¤G¤Q¤G¸¹,23.586436,120.531749
¥ý¤Ñ®c,¤­©²¤d·³,¹Å¸q¿¤,¹Å¸q¿¤ªF¥Û¶mªF¥Û§ø246¸¹,23.4570075,120.1489614
°]¹Îªk¤H»OÆW¬Ù¹Å¸q¿¤±ö¤s¥Éµê®c,¥_·¥¥È¤Ñ¤W«Ò,¹Å¸q¿¤,¹Å¸q¿¤±ö¤s¶m¤¤¤s¸ô±öªF§ø¤C¤G¸¹,23.5818388,120.559001
ºÖ¦w®c,ºÖ¼w¥¿¯«,¹Å¸q¿¤,¹Å¸q¿¤¤¤®H¶m¤¤®H§ø¤»¾F¡]¦b¤»¾F¤G¤Q¤§¤@¸¹¤§ªF¡^,23.421819,120.532221
¦wÀs©²,±i©²¤E¤d·³,¹Å¸q¿¤,¹Å¸q¿¤ªF¥Û¶m³»´¥§ø1¾F13¤§3¸¹,23.492188,120.21444
ª÷¤s©¥,Æ[­µ¦ò¯ª,¹Å¸q¿¤,¹Å¸q¿¤±ö¤s¶m«n¶Õ§|¤j«n§ø¤»¾F¤T¸¹,23.553934,120.549045
¯¬¤Ñ®c,¾G¦¨¥\,¹Å¸q¿¤,¹Å¸q¿¤ªF¥Û¶m®ü®H§ø4¾F21¸¹,23.473757,120.188857
¸Uµ½¼q,¸Uµ½·Ý,¹Å¸q¿¤,¹Å¸q¿¤±ö¤s¶m¤¤¾Ç¸ô±öªF§ø¤G¤§¤G¸¹,23.5762973,120.5600349
·½¿³®c,¦À¤ý·Ý,¹Å¸q¿¤,¹Å¸q¿¤±ö¤s¶m¥®¸­ªL·ç¨½§ø¤­¾F¤»¤Q¤G¸¹,23.5396797,120.6683069
±ö¤s²bªÙ,ªüÀ±ªû¦ò,¹Å¸q¿¤,¹Å¸q¿¤±ö¤s¶m«á¹L¤s¹L¤s§ø¤@¾F¤@¸¹¤§¤T,23.5720491,120.5469929
Âí¦w®c,ºÖ¼w¥¿¯«,¹Å¸q¿¤,¹Å¸q¿¤±ö¤s¶m¥þ¥JªÀ¤Ó©M§ø¤»¾F¤C¤§¤@¸¹,23.5401234,120.7177509
¤j±N®c,¤j±N·Ý,¹Å¸q¿¤,¹Å¸q¿¤±ö¤s¶m«nºaµó±ö«n§ø¥|¤Q¤§¤@¸¹,23.5824166,120.5578765
¤T·½ºÖ¼w®c,ºÖ¼w¥¿¯«,¹Å¸q¿¤,¹Å¸q¿¤±ö¤s¶m¤T·½¦`«n§ø¤­¾F¸ô¤G¤Q¤§¤@¸¹,23.5767442,120.5900917
¤T¤¸®c,¤T©x¤j«Ò,¹Å¸q¿¤,¹Å¸q¿¤±ö¤s¶m¤Ó¥­§ø¥|¾F¤Q¤T¤§¤@¸¹,23.5619373,120.6042747
°t¤Ñ®c,¤Ñ¤W¸t¥À,¹Å¸q¿¤,¹Å¸q¿¤¤»¸}¶m»[ÀY¿}¼t¤u¼t§ø122¸¹,23.479446,120.299717
µµ·¥·µ,¥È¤Ñ¤W«Ò,¹Å¸q¿¤,¹Å¸q¿¤¤»¸}¶m´ä¬ü§ø100¸¹,23.5284142,120.2886153
ÂíªZ®c,¥È¤Ñ¤W«Ò,¹Å¸q¿¤,¹Å¸q¿¤·s´ä¶m·Ë¥_¬q·Ë¥_§ø526¸¹,23.510558,120.3364113
°]¹Îªk¤H¥xÆW¬Ù¹Å¸q¿¤¥¬³UÂí¹L·¾«Ø¼w®c,¤­©²¤d·³,¹Å¸q¿¤,¹Å¸q¿¤¥¬³UÂí¹L·¾¦è¶Õ¦è¦w¨½¤T¾F¤T¤Q¸¹,23.4166464,120.1804891
ºsªZ®c,¥È¤Ñ¤W«Ò,¹Å¸q¿¤,¹Å¸q¿¤±ö¤s¶m¦w¹t§ø¤­¾F±ê´¶¼d¤G¤Q¥|¸¹¤§¤@,23.548893,120.584226
·s¿³®c,¯«¹A¸t«Ò,¹Å¸q¿¤,¹Å¸q¿¤¤ô¤W¶m¤j±[§ø18¾F49¸¹,23.4429596,120.3553197
¼w¿³®c,¤­¨¦¸t«Ò,¹Å¸q¿¤,¹Å¸q¿¤¤ô¤W¶m³»¶î·¾¶î·¾§ø3¾F18¤§1¸¹,23.4524144,120.370146
²MºÖ®c,²M¤ô¯ª®v,¹Å¸q¿¤,¹Å¸q¿¤¤Ó«O¥«­XÐ¤¸}¬K¯]¨½5¾F¡]711¸¹¡^,23.445622,120.320774
¥É½å®c,¤T©²¤d·³,¹Å¸q¿¤,¹Å¸q¿¤¤Ó«O¥«¥_·s¨½9¾F¤¤¿³¸ô¤@¬q152¸¹,23.5005502,120.3846978
ºÖ¼w®c,ºÖ¼w¥¿¯«,¹Å¸q¿¤,¹Å¸q¿¤¤ô¤W¶m¬h¤lªL¬q¤º·Ë§ø260¤§40¸¹,23.437515,120.42424
©^¤Ñ®cÀÙ¤½¼q,ÀÙ¤½¬¡¦ò,¹Å¸q¿¤,¹Å¸q¿¤¤ô¤W¶m±T¤lÀY¼e¤h§ø25¾F736¤§1¸¹,23.4561189,120.4283083
¸q¯«¼q,«Ó·Ý,¹Å¸q¿¤,¹Å¸q¿¤¤ô¤W¶m¤T©M§ø8¸¹,23.4552558,120.4129984
¥ÕÅb¦x,Æ[¥@­µµÐÂÄ,¹Å¸q¿¤,¹Å¸q¿¤¤ô¤W¶m¤T¬É®H°ê©m§ø9¾F36¸¹,23.4410529,120.4757399
¬h¦w®c,ºÖ¼w¥¿¯«,¹Å¸q¿¤,¹Å¸q¿¤¤ô¤W¶m¬h·s§ø4¾F¬h·s¬q53¸¹,23.426556,120.406134
ªk«B¦x,ÄÀ­{¦È¥§¦ò,¹Å¸q¿¤,¹Å¸q¿¤¤ô¤W¶m±T¤lÀY¼e¤h§ø10¾F30¸¹,23.4462882,120.4297955
¦Ë¦w¦x,Æ[­µ¦ò¯ª,¹Å¸q¿¤,¹Å¸q¿¤¤ô¤W¶m³»¼d¤T©M§ø6¾F14¸¹,23.4579941,120.4145164
¤d·³®c,Æ[­µ¦ò¯ª,¹Å¸q¿¤,¹Å¸q¿¤¤ô¤W¶m¬õ¤ò¼d©¾©M§ø6¾F10¸¹,23.413441,120.429667
´¶¦Ë¦x,Æ[­µ¦ò¯ª,¹Å¸q¿¤,¹Å¸q¿¤¤ô¤W¶m¤¤ÉÜ¤¤ÉÜ§ø14¾F11¸¹,23.4213007,120.4381581
ºÖ¼w·Ý,¶ý¯ª,¹Å¸q¿¤,¹Å¸q¿¤¤ô¤W¶m±T¤lÀY¼e¤h§ø9¾F29¸¹,23.4462882,120.4297955
¿³¤@Á¿°ó,©ú©ú¤W«Ò,¹Å¸q¿¤,¹Å¸q¿¤¤ô¤W¶m¤T¬É®H¤T¬É§ø13¾F247¤§7¸¹,23.4256807,120.4678131
¨ó¦w®c,¤j§B·Ý¤¶¤l±À,¹Å¸q¿¤,¹Å¸q¿¤¤ô¤W¶m¤T¬É®H°ê©m§ø11¾F113¸¹,23.4410529,120.4757399
³½¼dªF¦wºÖ®c,¤×©²¤d·³,¹Å¸q¿¤,¹Å¸q¿¤¤»¸}¶m¥jªL§ø30¤§1¸¹,23.484817,120.2265
¤T¥D®c,¤­¦~¤ý,¹Å¸q¿¤,¹Å¸q¿¤¤ô¤W¶m¤ôÀY§ø10¾F2¤§3¸¹,23.4501666,120.4336313
°Æ´ä¤f®c,¤Ñ¤W¸t¥À,¹Å¸q¿¤,¹Å¸q¿¤¤»¸}¶m»[ÀY§ø5¾F42¸¹,23.4940741,120.2907983
«O¦w®c,¤­©²¤d·³,¹Å¸q¿¤,¹Å¸q¿¤¤»¸}¶mÂù²[§ø4¾F42¸¹,23.514773,120.30017
´Â¤Ñ®c,¤Ñ¤W¸t¥À,¹Å¸q¿¤,¹Å¸q¿¤¥¬³UÂí·s¶ó·s¥Á¨½15¾F387¸¹,23.3367885,120.1712052
ºÖ¦w®c,ºÖ¼w¥¿¯«,¹Å¸q¿¤,¹Å¸q¿¤¤¤®H¶m¤¤®H§ø¤Q¾F80-56¸¹,23.425139,120.522952
¥Ã¦w®c,©P©²¤d·³,¹Å¸q¿¤,¹Å¸q¿¤¤»¸}¶m¤T¸q§ø10¾F8¸¹,23.520527,120.2907
³»¦w®c,¿½©²¤j«Ò,¹Å¸q¿¤,¹Å¸q¿¤¤»¸}¶m´ä§À¼dÂ×¬ü§ø205¸¹ªþ1,23.53252,120.287002
¦X¿³®c,«°¶ª·Ý,¹Å¸q¿¤,¹Å¸q¿¤¤ô¤W¶m¤T©M§ø4¾F20¸¹,23.459122,120.409513
©^½¬®c,§f¥P¯ª,¹Å¸q¿¤,¹Å¸q¿¤¤ô¤W¶m¤T¬É®H¤T¬É§ø138¤§2¸¹,23.43293,120.478367
·O¸t®c,¤Ñ¤W¸t¥À,¹Å¸q¿¤,¹Å¸q¿¤¤»¸}¶m·Ë­í§ø134¤§3¸¹,23.4973079,120.2640211
§®¥ú¦x,ÄÀ­{¦È¥§¦ò,¹Å¸q¿¤,¹Å¸q¿¤¦Ë±T¶m¥~®H½vô¬§ø¤@¤@¤§¤@¸¹,23.5237922,120.5941667
¸t¦w®c,«O¥Í¤j«Ò,¹Å¸q¿¤,¹Å¸q¿¤¤»¸}¶mÛ¡¤l±[¶§§ø5¾F43¸¹,23.555619,120.305136
ÆFÀ³¤½¸q¤h¼q,ÆFÀ³¤½,¹Å¸q¿¤,¹Å¸q¿¤¤ô¤W¶m¤TÂí¸ô¤TÂí§ø8¾F53¸¹,23.4152566,120.3870405
¯ë­YºëªÙ,ÄÀ­{¦È¥§¦ò,¹Å¸q¿¤,¹Å¸q¿¤¤»¸}¶m±[¤l±[¶§§ø33¤§50¸¹,23.555619,120.305136
¯uªZ¼q,¥È¤Ñ¤W«Ò,¹Å¸q¿¤,¹Å¸q¿¤¦Ë±T¶mªü©Þ¬u½vô¬§ø¤E¾F¤G¤Q¤G¤§¤@¸¹,23.5240436,120.5997815
¾Ä°_´ò«O¦w®c,ºÖ¼w¥¿¯«¡q¤g¦a¤½¡r,¹Å¸q¿¤,¹Å¸q¿¤¦Ë±T¶m¤¤©M§ø¤K¾F¾Ä°_´ò¤K¤Q¤E¤§¤@¸¹,23.5052388,120.695607
®¶¿³®c,Ãö«Ò§g,¹Å¸q¿¤,¹Å¸q¿¤¦Ë±T¶mµL©³¼æ¶í¿³§ø¤Q¤T¾F,23.5041029,120.5873139
ºÖ¦w®c,¤T©m´L¤ý,¹Å¸q¿¤,¹Å¸q¿¤¤ô¤W¶m§d¦Ëµó¤ôÀY§ø14¾F38¸¹,23.4300427,120.4048303
¤åÀ³¤½,«O¥Í¤j«Ò,¹Å¸q¿¤,¹Å¸q¿¤¤ô¤W¶m§d¦Ëµó¤ôÀY§ø13¾F18«Ñ35¸¹,23.4298807,120.4049389
¶}¤s®c,¾G¦¨¥\,¹Å¸q¿¤,¹Å¸q¿¤³À¯ó¶m³À¯ó278¸¹ªþ1,23.4010271,120.2685799
ºÑ¤s©¥,Æ[­µ¦ò¯ª,¹Å¸q¿¤,¹Å¸q¿¤¦Ë±T¶mµæ°óµµ¶³§ø¤Q¤»¾F¤E¤§¤­¸¹,23.500706,120.541422
·sµo¦x,Æ[­µ¦ò¯ª,¹Å¸q¿¤,¹Å¸q¿¤¤ô¤W¶m«n¹t«n©M§ø8¾F11¸¹,23.415999,120.384938
¨ó¤Ñ®c,Ãö¸t«Ò§g,¹Å¸q¿¤,¹Å¸q¿¤¤ô¤W¶m«á¼d«n©M§ø9¾F8¸¹,23.412481,120.361236
·Oµ½¦x,¤j¼d§B,¹Å¸q¿¤,¹Å¸q¿¤³À¯ó¶m³À¯ó¬q1192-0004¸¹,23.4113896,120.3083201
¸Uµ½¬Û¤½,¸Uµ½¬Û¤½,¹Å¸q¿¤,¹Å¸q¿¤³À¯ó¶m³À¯ó¤p¬q³À¯ó¬q1007¤§000¸¹,23.4113896,120.3083201
¶}¥x¸t¤ý©²,¾G¦¨¥\,¹Å¸q¿¤,¹Å¸q¿¤³À¯ó¶m¦Ë¤l¸}ªQ¦Ë§ø14¾F144¸¹ªþ1,23.3944078,120.2851521
¹Ø¼w®c,¤½¤ý,¹Å¸q¿¤,¹Å¸q¿¤¦Ë±T¶m¥æ¤O©W¤¯¹Ø§ø¤T¾F,23.532117,120.643159
³Âºß®H¤T¤s°ê¤ý¼q,¤T¤s°ê¤ý,¹Å¸q¿¤,¹Å¸q¿¤¦Ë±T¶m³Âºß®H³Àº¡§ø¤»¤G¤§¤@¸¹,23.5022639,120.5346333
©^¤Ñ©¥,Æ[­µ¦ò¯ª,¹Å¸q¿¤,¹Å¸q¿¤¦Ë±T¶m¬õ«n§|½vô¬§ø¥|¾F¤G¤Q¸¹,23.541949,120.604787
¶}¤Ñ«O¦w®c,¶}¤Ñ¸t«Ò,¹Å¸q¿¤,¹Å¸q¿¤¤¤®H¶m¤½À]©M·ü§ø14¾F22¸¹,23.446252,120.458819
±I¥ú¦x,¦è¤è¤T¸t,¹Å¸q¿¤,¹Å¸q¿¤¤¤®H¶m¤¤¥¿¸ô¶©¿³§ø9¾F480¸¹,23.4396881,120.5278244
´¶¤Ñ®c,»¯¤lÀs,¹Å¸q¿¤,¹Å¸q¿¤¥¬³UÂí®ü§Qµó§Â®ü¨½11¾F26¸¹,23.3824481,120.1514077
¥É¤ý®c,¥É¤ý¤d·³,¹Å¸q¿¤,¹Å¸q¿¤¤»¸}¶m§ó¼d§ø7¾F§ó¼d¤p¬q304¤§19¤Î310¤§2¸¹,23.482142,120.239069
«ý¶©®c,ºÖ¼w¥¿¯«,¹Å¸q¿¤,¹Å¸q¿¤¦Ë±T¶m¤¤¤s¸ô¦Ë±T§ø¤T¾F¤­¤Q¤T¤§¤@¸¹,23.523317,120.5510386
¶}¤Ñ®c,¶}¤Ñ¸t¯ª,¹Å¸q¿¤,¹Å¸q¿¤³À¯ó¶m¤T¨¤§ø 11¾F109¸¹,23.4026098,120.3388591
©ú¦w®c,¨·¤ý·Ý,¹Å¸q¿¤,¹Å¸q¿¤³À¯ó¶m®üÂ×Â×¸Y§ø3¾F21¤§1¸¹,23.4162711,120.2879186
«C©¥®c,¦À¤ý·Ý,¹Å¸q¿¤,¹Å¸q¿¤¦Ë±T¶m¤¤¿³¸ô¤º®H§ø¤­¾F¤Q¤T¸¹,23.4848198,120.5603264
¤s¦è¤Ò¤l¤Ñ¤å®c,¤å¿Å¸t«Ò,¹Å¸q¿¤,¹Å¸q¿¤¤¤®H¶m©M¬ü§ø¤G¤E¾F¤¤¤s·s?¥|¤C¤»¤§¤@¸¹,23.4584809,120.4673532
«O¦w®c,¾G¦¨¥\,¹Å¸q¿¤,¹Å¸q¿¤³À¯ó¶m°¨¸Y«á278¸¹ªþ1,23.447882,120.279656
¥Û´Í§d»ñ¼q,§d»ñ¤½,¹Å¸q¿¤,¹Å¸q¿¤¦Ë±T¶m¥Û´Í¤¤©M§ø¤Q¤E¾F¤C¤§¤@¸¹,23.4757933,120.703828
¯uªZ¼q,¥È¤Ñ¤W«Ò,¹Å¸q¿¤,¹Å¸q¿¤¦Ë±T¶m¬ì©³½vô¬§ø¤Q¤»¾F,23.531907,120.59087
Âí¥_®c,±i©h±C¶ý,¹Å¸q¿¤,¹Å¸q¿¤¤ô¤W¶m¸q¿³§ø2¾F57¸¹,23.418168,120.420986
«n¤Ñ®c,¥È¤Ñ¤W«Ò,¹Å¸q¿¤,¹Å¸q¿¤¤ô¤W¶m¶î·¾¶î·¾§ø7¾F47¤§1¸¹,23.458891,120.372265
¸t´ä®c,¤Ñ¤W¸t¥À,¹Å¸q¿¤,¹Å¸q¿¤¥¬³UÂí¾ðªLÀY¬q¾ðªL¤p¬q¾ðªL¨½283¸¹,23.4024104,120.2175951
¦w¤Ñ®c,¤Ñ¤W¸t¥À,¹Å¸q¿¤,¹Å¸q¿¤¥¬³UÂíªF¦wÉÜ¥ú´_¨½43¸¹,23.3745158,120.1694307
°]¹Îªk¤H»OÆW¬Ù¹Å¸q¿¤¥¬³UÂí¹L·¾«Ø¼w®c,¤­©²¤d·³,¹Å¸q¿¤,¹Å¸q¿¤¥¬³UÂí¦è¦w¨½3¾F¹L·¾¦è¶Õ30¸¹,23.4166464,120.1804891
¬K¬îªZ¼q,Ãö¸t«Ò§g,¹Å¸q¿¤,¹Å¸q¿¤¦µ¤l¥«À³µæ®H¥Ã©M¨½4¾F36¤§1¸¹,23.4645201,120.235232
¦À¤ý¼q,¦À©²¤d·³,¹Å¸q¿¤,¹Å¸q¿¤¤»¸}¶m¼æáY§ø113¸¹,23.504102,120.27708
·¬«Ò®c,·¬¾ð´L¤ý,¹Å¸q¿¤,¹Å¸q¿¤¤¤®H¶m¥ÛÀY­í¸Î¥Á§ø(¬q¤­¤Q¤T¤§¤G¤Q¸¹),23.429455,120.512873
¸Uµ½¤½¼q,¸Uµ½¤½,¹Å¸q¿¤,¹Å¸q¿¤¤¤®H¶m©M·ü§ø¡]©M¿³¬q¤G¤E¤@¸¹¡^,23.4513416,120.4639256
¥Ã¦w®c,¦D©²¤j¤H,¹Å¸q¿¤,¹Å¸q¿¤¤»¸}¶m»[ÀY»[«n§ø399¸¹,23.4903292,120.2913032
¦è¦w®c,ºÖ¼w¥¿¯«,¹Å¸q¿¤,¹Å¸q¿¤·s´ä¶mºÖ¼w¸ôºÖ¼w§ø7¾F94¸¹,23.5569601,120.3437714
Å@¦w®c,¤­©²¤d·³,¹Å¸q¿¤,¹Å¸q¿¤¥¬³UÂí®H¥J­íªF´ä¨½120¤§1¸¹,23.376891,120.192483
µµµØ®c,Æ[­µ¦ò¯ª,¹Å¸q¿¤,¹Å¸q¿¤¤ô¤W¶m¤T¬É®H°ê©m§ø5¾F5¤§2¸¹,23.4410529,120.4757399
Ä_Â×®c,¶ý¯ª,¹Å¸q¿¤,¹Å¸q¿¤¤ô¤W¶m«n¶m§ø76¸¹,23.4114579,120.453948
¤¯¦w®c,¥È¤Ñ¤W«Ò,¹Å¸q¿¤,¹Å¸q¿¤¤ô¤W¶m¤º·Ë¤º·Ë§ø4¾F47¸¹,23.436694,120.42988
¸q¥Á¤½¥¿¼q,¸q¥Á¤½,¹Å¸q¿¤,¹Å¸q¿¤¤ô¤W¶m«Ñ¤f²Ê·Ë§ø13¾F55¤§3¸¹,23.434284,120.476591
¬d¥P®c¼q,¬d¥P¤½,¹Å¸q¿¤,¹Å¸q¿¤¤»¸}¶m´ä§À¼d´ä¬ü§ø2¾F¬qÂ×¬ü¤p¬q316¸¹,23.5284434,120.289879
ºÑ¼æÀs´ò®c,¤T¥N¯B¦ò,¹Å¸q¿¤,¹Å¸q¿¤³À¯ó¶mºÑ¼æ§ø6¾F18¸¹,23.384264,120.297014
§|¥J©WºÖ¿³®c,ºÖ¼w¥¿¯«,¹Å¸q¿¤,¹Å¸q¿¤¦Ë±T¶m§|¥J©W©M¥­§ø¤»¾F¤C¤Q¤E¤§¤@¸¹,23.515223,120.546386
°]¹Îªk¤H¹Å¸q¿¤¥¬³UÂí¹L·¾«Ø¼w®c,¤­©²¤d·³,¹Å¸q¿¤,¹Å¸q¿¤¥¬³UÂí¦è¦w¨½3¾F¹L·¾¦è¶Õ30¸¹,23.4166464,120.1804891
¿½©²¤j«Ò·µ,¿½©²¤j«Ò,¹Å¸q¿¤,¹Å¸q¿¤¥¬³UÂí®¶¼d¨½11¾F10¤§1¸¹,23.3767268,120.1682207
«ÂÆF®c,¦¶¤ý,¹Å¸q¿¤,¹Å¸q¿¤¤»¸}¶m¥e´I­í¥¿¸q§ø7¾F45¸¹,23.492054,120.253648
¼sºÖ®c,¤T¤s°ê¤ý,¹Å¸q¿¤,¹Å¸q¿¤·s´ä¶m¦@©M§ø8¾F«áÉÜ38¸¹,23.57167,120.335244
«O¦w®c,«O¥Í¤j«Ò,¹Å¸q¿¤,¹Å¸q¿¤¤»¸}¶m¤UÂù·Ë¥¿¸q§ø11¾F26¸¹,23.481448,120.252524
·O«O®c,«O¥Í¤j«Ò,¹Å¸q¿¤,¹Å¸q¿¤¦Ë±T¶mµf¥J¼æ¸q¤¯§ø¤Q¾F¤­¤§¤@¸¹,23.5046758,120.5012978
¸Uµ½°ó,¸Uµ½¤½,¹Å¸q¿¤,¹Å¸q¿¤¤ô¤W¶m·s¶iµó¤ôÀY§ø10¾F62«Ñ12§Ë8¸¹,23.4314318,120.4022179
Às¦®®c,Ãö¸t«Ò§g,¹Å¸q¿¤,¹Å¸q¿¤¤»¸}¶m·ËáY­í·Ë­í§ø5¾F44¸¹¤§1,23.495706,120.269636
¤­¤ý®c,¤­©²¤d·³,¹Å¸q¿¤,¹Å¸q¿¤¦Ë±T¶m¤¤©M§ø¾Ä°_´ò¤@¤G¤»¸¹,23.5047978,120.6974477
®H©¥®c,¦À©²¤d·³,¹Å¸q¿¤,¹Å¸q¿¤¦Ë±T¶mª@¥­§ø¤»¾F³»®H¤E¤Q¤»¸¹,23.472885,120.567157
¥È«O®c,¥È¤Ñ¤W«Ò,¹Å¸q¿¤,¹Å¸q¿¤¤Ó«O¥«¤Ó«O¨½145¸¹,23.4620968,120.3331866
Âí¦w®c,¤­©²¤d·³,¹Å¸q¿¤,¹Å¸q¿¤¤Ó«O¥«¤T¶ô­í¦w¤¯¨½1¾F1¤§7¸¹,23.4427112,120.3093228
¹Å¸q¿¤¥¬³UÂí¨£Às¨½ª÷µØ¤s°ó,Æ[¥@­µµÐÂÄ,¹Å¸q¿¤,¹Å¸q¿¤¥¬³UÂí¨£Às¨½¤º¥Ð1¸¹,23.382199,120.178335
ÀR¼wÁI¦x,ÄÀ­{¦È¥§¦ò,¹Å¸q¿¤,¹Å¸q¿¤¥¬³UÂí¹L·¾¦è¶Õ¦è¦w¨½150¸¹,23.4166464,120.1804891
°]¹Îªk¤H¥xÆW¬Ù¹Å¸q¿¤¥¬³UÂí¨£Às¨½ª÷µØ¤s°ó,Æ[¥@­µµÐÂÄ,¹Å¸q¿¤,¹Å¸q¿¤¥¬³UÂí¤º¥Ð¨£Às¨½¤@¸¹,23.382199,120.178335
µµº³¦x,Æ[­µ¦ò¯ª,¹Å¸q¿¤,¹Å¸q¿¤¤¤®H¶m®r¸}·çÂ×§ø7¾F43ªþ1¸¹,23.395133,120.538078
ªF¦w®c,§õ©²¤d·³,¹Å¸q¿¤,¹Å¸q¿¤¥¬³UÂíªF´ä¨½10¾F118¸¹,23.376891,120.192483
´_¿³®c,½Ñ©²¤d·³,¹Å¸q¿¤,¹Å¸q¿¤·s´ä¶m¼æ¤láY¼æ¤j§ø3¾F16¸¹,23.542128,120.331896
¤E¤Ñ®c,Ãö¸t«Ò§g,¹Å¸q¿¤,¹Å¸q¿¤·s´ä¶m¤ë¬Ü¼æ¤ë¬Ü§ø19¾F149¸¹ªþ50,23.524953,120.348944
¶¶¤Ñ®c,¤­¤ý·Ý,¹Å¸q¿¤,¹Å¸q¿¤¤»¸}¶m«á±Y¤s±Y¤s§ø7¾F46¸¹,23.504741,120.2309613
«n¤Ñ¸t¹D°|,¤Ñ¼w¸t¥À,¹Å¸q¿¤,¹Å¸q¿¤³À¯ó¶m°¨¸Y«áÂ×¸Y§ø6¾F4¤§1¸¹,23.447882,120.279656
¤Ñ©^®c,¤Ñ¤W¸t¥À,¹Å¸q¿¤,¹Å¸q¿¤¦Ë±T¶m³À»ï¸ô³Àº¡§ø¤Q¤G¾F¤T¤Q¤G¸¹,23.4982859,120.5333573
¤d¥ú¦x,ÄÀ­{¦È¥§¦ò,¹Å¸q¿¤,¹Å¸q¿¤¤ô¤W¶m¬h¶m§ø176¤§6¸¹,23.4372314,120.4181428
©ú¼w¸t°ó,©ú©ú¤W«Ò,¹Å¸q¿¤,¹Å¸q¿¤¤ô¤W¶m¤jÔ³§À¤jÔ³§ø2¾F12¤§12¸¹,23.4318568,120.3780081
¤¤ªF®c,¤ì©²¤¸«Ó,¹Å¸q¿¤,¹Å¸q¿¤¥¬³UÂíªF´ä¨½´º¤s¬q325¤§1¦a¸¹,23.3763395,120.1593539
µµºÑ¦x,Æ[¥@­µµÐÂÄ,¹Å¸q¿¤,¹Å¸q¿¤¤¤®H¶m©M¬ü¸ô©M¬ü§ø26¾F50¸¹,23.4572709,120.4650191
¤Ñ¦w®c,½L¥j¸t«Ò,¹Å¸q¿¤,¹Å¸q¿¤¤¤®H¶m«áÉÜ©M¬ü§ø13¾F28-36¸¹,23.4521427,120.4624939
ªZ¸t®c,Ãö¸t«Ò§g,¹Å¸q¿¤,¹Å¸q¿¤¤jªLÂí¥­©Mµó¦NªL¨½8¾F32«Ñ2¸¹,23.6011913,120.4557044
Âí¦w©¥,Æ[­µ¦ò¯ª,¹Å¸q¿¤,¹Å¸q¿¤¦Ë±T¶m©M¥­§ø¤Q¤G¾F¤G¤Q¤C¤§¤T¸¹,23.5164114,120.5378
«nµ½¦x,Æ[­µµÐÂÄ,¹Å¸q¿¤,¹Å¸q¿¤¦Ë±T¶m°ñ°óÆW¾ô§ø¤G¤»¾F¤»¤Q¤T¸¹,23.494506,120.495877
­ã´£¦x,­ã´£µÐÂÄ,¹Å¸q¿¤,¹Å¸q¿¤¦Ë±T¶m¤j©W¸q¶©§ø³»¤T¤§¤T¸¹,23.50174,120.555479
¬K¤t®c,¬K©h±C,¹Å¸q¿¤,¹Å¸q¿¤¦µ¤l¥«¾¤©ú¸ô¦wºÖ¨½13¾F1¤§2¸¹,23.4694942,120.2466647
«O¦w®c,¤­©²¤d·³,¹Å¸q¿¤,¹Å¸q¿¤¦µ¤l¥«¤¤¥¿¸ô¤¤¥¿¨½10¾F171¸¹,23.4658789,120.2437965
¦Ë¦w«F,¤­©²¤d·³,¹Å¸q¿¤,¹Å¸q¿¤¦µ¤l¥«À³µæ®H¥Ã©M¨½3¾F25¤§1¸¹,23.4633593,120.2323165
¿A¤s®c,Å@°ê´L¤ý,¹Å¸q¿¤,¹Å¸q¿¤¦µ¤l¥«Àn¥À¼d¦Ë§ø¨½1¾F7¤§7¸¹,23.4319004,120.2469056
¾ëÆF®c,§f¥P¯ª¡B¾ëÆF¤½,¹Å¸q¿¤,¹Å¸q¿¤¦µ¤l¥«®ü³q¸ô¤å¤Æ¨½10¾F116¸¹,23.4638379,120.2398193
ªø¬K¯¨,ªô¬K®Q,¹Å¸q¿¤,¹Å¸q¿¤¥¬³UÂí·s­í¥J·s­í¨½4¾F295¸¹ªþ1,23.3868132,120.1726198
Å@¥Í®c,§Â©²¤j¨Ï,¹Å¸q¿¤,¹Å¸q¿¤¤¤®H¶mÉÜ¤º´I¦¬§ø9¾F4¸¹,23.444855,120.491857
¹F¤Ñ®c,¥È¤Ñ¤W«Ò,¹Å¸q¿¤,¹Å¸q¿¤¤¤®H¶mª÷Äõ§ø3¾F16¸¹,23.4400803,120.5065934
µL·¥¤Ñ¤¯®c,µL·¥­ì©l¤j¤Ñ´L,¹Å¸q¿¤,¹Å¸q¿¤¤¤®H¶m¥ÛÀY­í¸Î¥Á§ø2¾F20¤§11¸¹,23.429455,120.512873
¥Ã¦w®c,±i¸t¯u§g,¹Å¸q¿¤,¹Å¸q¿¤¥¬³UÂí¤Ó¥­¸ô§Â®ü¨½312«Ñ2¤§2¸¹,23.3786704,120.1573074
º½¦À®c,ª÷¥À®Q®Q,¹Å¸q¿¤,¹Å¸q¿¤¤¤®H¶m¤¤±[§ø¤C¾F¡]¬q¤@¤»¤C¤§¤G¦a¸¹¡^,23.375986,120.5605668
¤Ó¤½¼q,«¸¤l¤ú,¹Å¸q¿¤,¹Å¸q¿¤·s´ä¶m¤¤¥¿¸ôºÖ¼w§ø16¾F115«Ñ19¸¹,23.559292,120.3454824
¥Á¥Í§øºÖ¼w®c,¤g¦a¤½,¹Å¸q¿¤,¹Å¸q¿¤¤ô¤W¶m©¾§µµó¥Á¥Í§ø1¾F1¤§1¸¹,23.444828,120.435035
¤T¬É¤½¼q,¤T©x¤j«Ò,¹Å¸q¿¤,¹Å¸q¿¤¤ô¤W¶m«Ñ¤f²Ê·Ë§ø10¾F47¸¹,23.4443753,120.393831
«á¼d¤j²³·Ý¼q,¤j²³·Ý,¹Å¸q¿¤,¹Å¸q¿¤¤ô¤W¶m«á¼d«n©M§ø15¾F62¸¹,23.412481,120.361236
ªQ¤ý¼q,ªQ¾ð´L¤ý,¹Å¸q¿¤,¹Å¸q¿¤·s´ä¶m¤ë¬Ü¼æ¤ë¬Ü§ø16¾F112¸¹,23.51995,120.349081
§Â°Â¼qªZ¸t·µ,¤Ó®v·Ý,¹Å¸q¿¤,¹Å¸q¿¤¥¬³UÂí¤Ó¥­¸ô§Â®ü¨½5¾F322«Ñ3¸¹,23.378895,120.157262
Às¯]®c,¤EÀs¤T¤½,¹Å¸q¿¤,¹Å¸q¿¤¥¬³UÂí?¦a¥J¤¤¦w¨½1¾F1¸¹ªþ3,23.4197592,120.1830558
Às¤s®c,½Ñ©²¤d·³,¹Å¸q¿¤,¹Å¸q¿¤¥¬³UÂíªF´ä¨½1¾F30¸¹,23.3720867,120.1900069
¥Ã¶¶®c,¥È¤Ñ¤W«Ò,¹Å¸q¿¤,¹Å¸q¿¤¤ô¤W¶m¤T¬É®H°ê©m§ø8¾F45¸¹,23.434488,120.480857
¤j±N·Ý¼q,¤j±N·Ý,¹Å¸q¿¤,¹Å¸q¿¤¤ô¤W¶m¥«¬Fµó¤ô¤W§ø1¾F5¸¹,23.428443,120.3985826
¶©¤s®c,¤Ó¤W¦Ñ§g,¹Å¸q¿¤,¹Å¸q¿¤¤ô¤W¶m«Ñ¤f¬q¤T©M§ø36¤§1¦a¸¹,23.45459,120.40975
Às»ñ®c,¶ê³q¦Û¦b¤Ñ´L,¹Å¸q¿¤,¹Å¸q¿¤¤»¸}¶m¤j¶î®v¬q¶î®v§ø11¾F257¸¹,23.506729,120.283915
¼w¦w®c,ªZ¼w­^«J,¹Å¸q¿¤,¹Å¸q¿¤¤»¸}¶m¦Ë¤l¸}¦Ë¥»§ø15¾F106¸¹,23.5323224,120.2627795
Ä¬­í§ø´Â¦w®c,Ä¬©²¤d·³,¹Å¸q¿¤,¹Å¸q¿¤¤»¸}¶mÄ¬­í¼dÄ¬­í§ø1¾F84¸¹ªþ11,23.554802,120.2987209
´Â¸t®c,¦¿¤¸«Ó,¹Å¸q¿¤,¹Å¸q¿¤¤jªLÂí¤U¼æ©³¥­ªL¨½7¾F26¸¹,23.5934185,120.4563841
¤¸«Ó©²,«O»ö´L¤ý,¹Å¸q¿¤,¹Å¸q¿¤¤jªLÂí±Æ¤l¸ô¦èµ²¨½¬q508¤§1¦a¸¹,23.612136,120.414719
´ä«O®c,¤T¤s°ê¤ý,¹Å¸q¿¤,¹Å¸q¿¤¤Ó«O¥«´ä§À¨½2¾F´ä§À20¤§1¸¹,23.476849,120.363766
ªF©M®c,¤¸«Ó·Ý,¹Å¸q¿¤,¹Å¸q¿¤¤Ó«O¥«ªF¶Õ¼dªF¶Õ¨½2¾F¡]ªF¶Õ¬q330¤§1¦a¸¹¡^,23.4650312,120.3039172
ºÖ¥¿©¾¤Ó¤l®c,¤¤¾Â¤¸«Ó,¹Å¸q¿¤,¹Å¸q¿¤¤¤®H¶m³»¤¤¤Uµó´I¦¬§ø5¾F68ªþ7¸¹,23.4490184,120.490054
¦ò¤è®c,ºF·\¯ª®v,¹Å¸q¿¤,¹Å¸q¿¤¤jªLÂí¤j´ò´ò¥_¨½4¾F15¸¹,23.6212779,120.455526
¬ü¦w®c,«O¥Í¤j«Ò,¹Å¸q¿¤,¹Å¸q¿¤·Ë¤f¶m±[§À¬ü¥_§ø48¤K¤§1¸¹,23.591117,120.382589
Às¤sÅÉ,ÄÀ­{¦È¥§¦ò,¹Å¸q¿¤,¹Å¸q¿¤¤jªLÂí¤¤§|¨½Ë|¿¼¤s17¾F41¸¹,23.5704586,120.5197265
¥Û½X®c,ªL©²¤¸«Ó,¹Å¸q¿¤,¹Å¸q¿¤¦µ¤l¥«Âù·Ë¤f·Ë¤f¨½7¾F192¤§1¸¹,23.485361,120.27067
Âù·Ë¤fºÖ¤Ñ®c,§d©²¤T¤d·³,¹Å¸q¿¤,¹Å¸q¿¤¦µ¤l¥«Âù·Ë¨½3¾F29¸¹,23.484518,120.277958
¼w¦w®c,¤­©²¤d·³,¹Å¸q¿¤,¹Å¸q¿¤¦µ¤l¥«À³µæ®H¥Ã©M¨½12¾F107¤§1¸¹,23.4633593,120.2323165
®çªá®c,¤Ñ¤W¸t¥À,¹Å¸q¿¤,¹Å¸q¿¤¤Ó«O¥«·s°ñ¨½4¾F181¸¹,23.4863485,120.3351464
¤ô¤û­í¥É¬Ó®c,¥É¬Ó¤W«Ò,¹Å¸q¿¤,¹Å¸q¿¤¤Ó«O¥««n·s¨½4¾F¤¯·R¸ô29¸¹,23.496764,120.3880987
¥j®¦®c,¤­©²¤d·³,¹Å¸q¿¤,¹Å¸q¿¤¤Ó«O¥«³Â¼d¨½¤¤¤s¸ô¤G¬q250¸¹,23.4997874,120.3684953
¥É¬u¦x,Ãö¸t«Ò§g,¹Å¸q¿¤,¹Å¸q¿¤¤Ó«O¥««á¼æ¨½15¾F418¸¹,23.4508329,120.3431049
¤T©x¤j«Ò¼q,¤T©x¤j«Ò,¹Å¸q¿¤,¹Å¸q¿¤·s´ä¶m¦èÉÜ§ø6¾F66¸¹,23.5637166,120.3762869
¤E¥È®c,¤E¤Ñ¥È¤k,¹Å¸q¿¤,¹Å¸q¿¤¤»¸}¶m¶î®v§ø6¾F35¤§1¸¹,23.4931753,120.517433
¿³®c¦x,Æ[­µ¦ò¯ª,¹Å¸q¿¤,¹Å¸q¿¤¦Ë±T¶m¦µ¤l®HÆW¾ô§ø¤T¤Q¤G¤§¤@¸¹,23.4931753,120.517433
¸t¦w®c,¤­Åã¤j«Ò,¹Å¸q¿¤,¹Å¸q¿¤¦Ë±T¶m¼Ì¾ð©W¶í¿³§ø¿à­í¤­¾F¡]¬q¤T¤»¥|¸¹¡^,23.4891347,120.5774686
¯uªZ®c,¥È¤Ñ¤W«Ò,¹Å¸q¿¤,¹Å¸q¿¤¦Ë±T¶m¤ô§|¨F§|§ø¤K¾F¤»¤Q¤@¸¹,23.5291634,120.5194232
¸t¤Ñ®c,Ãö¸t«Ò§g,¹Å¸q¿¤,¹Å¸q¿¤¤¤®H¶m¤¤µØ¸ô©M¿³§ø34¾F305«Ñ223-1¸¹,23.4378915,120.4526414
ºÖ¼w®c,ºÖ¼w¥¿¯«,¹Å¸q¿¤,¹Å¸q¿¤¤¤®H¶m¥ÛÀY­í¬q¤@¤K¤K¤§¤C¦a¸¹,23.4516627,120.4729495
±N­x©²,¦D©²¤d·³,¹Å¸q¿¤,¹Å¸q¿¤¤¤®H¶m³»¤¤¤Uµó´I¦¬§ø¥|¾F¤»¤@¸¹,23.4483296,120.4909546
´¿¤å¦x¤CÄ_¶ð,¦aÂÃ¤ý,¹Å¸q¿¤,¹Å¸q¿¤¤j®H¶m¤j®H§ø¥|¾F¤­¤Q¤­¸¹,23.2947757,120.5936649
¸U¤¯¤½¼q,¸U¤¯¤½,¹Å¸q¿¤,¹Å¸q¿¤·s´ä¶m¤¤¤u¬q¤¤¬v§ø203¦a¸¹,23.512212,120.369857
¦èªL¦x,ÄÀ­{¦È¥§¦ò,¹Å¸q¿¤,¹Å¸q¿¤¤¤®H¶m©W³»¤¤®H§ø¤@¾F¤E¸¹,23.419993,120.537855
¼wÀs®c,¨·¤ý,¹Å¸q¿¤,¹Å¸q¿¤¤»¸}¶m·ËáY­í·Ë­í§ø77¸¹,23.495706,120.269636
ºÖ¼w¯¨,ºÖ¼w¥¿¯«,¹Å¸q¿¤,¹Å¸q¿¤·s´ä¶m«n´ä§ø4¾F88¸¹,23.551935,120.313402
¤T¤ý¤½¯¨,¤T¤ý¤½,¹Å¸q¿¤,¹Å¸q¿¤·s´ä¶m¤j¼æ§ø¤j¼æ4¾F168¸¹,23.5536605,120.3700351
Âí¥_·µ,¥_·¥¥È¤Ñ¤W«Ò,¹Å¸q¿¤,¹Å¸q¿¤·s´ä¶m¼æ¤j§ø¤»¤æ¤l4¾F6¸¹ªþ1,23.548,120.326625
¥_·¥·µ,¥È¤Ñ¤W«Ò,¹Å¸q¿¤,¹Å¸q¿¤¤j®H¶m¤j®H§ø¤­¾F¤@¤T¤C¸¹,23.2947757,120.5936649
«OºÖ®c,¤k´E®Q®Q,¹Å¸q¿¤,¹Å¸q¿¤¤Ó«O¥«±ö®H¨½10¾F71¸¹,23.4593541,120.33302
ÂíºÖ®c,¤Ñ¤W¸t¥À,¹Å¸q¿¤,¹Å¸q¿¤¤Ó«O¥««á¼æ¨½12¾F470¸¹,23.4445667,120.3412821
ºÖ¿³®c,¤Ñ¤W¸t¥À,¹Å¸q¿¤,¹Å¸q¿¤¤Ó«O¥«¥Ð§À¨½8¾F·Ë«n3¸¹,23.8283395,120.7084089
¤C¥D®c,¤C¥D¤ý·Ý,¹Å¸q¿¤,¹Å¸q¿¤¤Ó«O¥«²»©M2¸ô2¤§1¸¹,23.45766,120.292656
¦wºÖ®c,¤T¤s°ê¤ý,¹Å¸q¿¤,¹Å¸q¿¤¤Ó«O¥«ºÞ¨Æ­í¬qºÞ¨Æ­í¤p¬q505¦a¸¹,23.475747,120.374921
«O¦w®c,«O¥Í¤j«Ò,¹Å¸q¿¤,¹Å¸q¿¤¤Ó«O¥««áÉÜ¨½2¾F18¸¹,23.4700219,120.327188
²M¤ô·µ,²M¤ô¯ª®v,¹Å¸q¿¤,¹Å¸q¿¤·s´ä¶m·Ë¥_¤p¬q·Ë¥_¬q750¡B751¦a¸¹,23.510558,120.3364113
«O¦w®c,¦¶¡B¨·¡B§õ©²¤d·³,¹Å¸q¿¤,¹Å¸q¿¤·s´ä¶mµæ¤½­í¬qµæ¤½§ø355¦a¸¹,23.53695,120.350954
¥N¤Ñ®c,½Ñ©²¤d·³,¹Å¸q¿¤,¹Å¸q¿¤·s´ä¶m«n±[§ø±[¤l1¾F97¸¹,23.591996,120.354551
ªk­µ¦x,¦è¤è¤T¸t¦ò,¹Å¸q¿¤,¹Å¸q¿¤·s´ä¶mµn¶³¸ôºÖ¼w§ø9¾F111«Ñ14¸¹,23.555635,120.3494932
¾ð¼w®c,³¯¸t¤ý,¹Å¸q¿¤,¹Å¸q¿¤³À¯ó¶m«áÔ³§ø14¾F105¸¹,23.4122707,120.3291365
ªFÀ®·µ,¦aÂÃ¤ýµÐÂÄ,¹Å¸q¿¤,¹Å¸q¿¤¦Ë±T¶m³»±T¸}Às¤s§ø¤»¾F¤@¤§¤@¸¹,23.517778,120.5918539
¹Å¸q¥@©ú·O´f°ó,¦è¤ýª÷¥À,¹Å¸q¿¤,¹Å¸q¿¤¦Ë±T¶m°ñ°óÆW¾ô§ø¤G¤»¾F¤G¤T«Ñ¤­¤@¤§¤»¸¹¡q¤­¶¡­í¬q¤C¤G¤­¡r,23.494506,120.495877
ºÖ¦w®c,²M¤ô¯ª®v,¹Å¸q¿¤,¹Å¸q¿¤¤Ó«O¥«¥Ð§À¨½2¾F16¸¹,23.4537215,120.3345092
´_ª÷¯uªZ¼q,¥È¤Ñ¤W«Ò,¹Å¸q¿¤,¹Å¸q¿¤¦Ë±T¶m´_ª÷§ø¤Q¤@¾F´_¹©ª÷¤­¤Q¤E¸¹,23.5283539,120.5694503
·O¶³²b­b,¦è¤è¤T¸t,¹Å¸q¿¤,¹Å¸q¿¤¦Ë±T¶m³»²Â¥J¥úµØ§ø¤@¾F¤T¤§¤G¸¹,23.482948,120.6806624
¯uªZ¼q,¥È¤Ñ¤W«Ò,¹Å¸q¿¤,¹Å¸q¿¤¦Ë±T¶m§|¥J©W©M¥­§ø¤­¾F¤@¤T¤E¸¹,23.5179688,120.5493193
ª@¥­¤s,Æ[­µ¦ò¯ª,¹Å¸q¿¤,¹Å¸q¿¤¦Ë±T¶mª@¥­§ø¤Q¤»¾F¤­¤Q¤@¸¹,23.469423,120.561644
¤Ó¤l¤s·O¶³¦x,Æ[­µ¦ò¯ª,¹Å¸q¿¤,¹Å¸q¿¤¦Ë±T¶m³»©W¶í¿³§ø¤E¾F¤G¸¹¤§¤@,23.49856,120.587967
ªF¦w®c,«°¶ª,¹Å¸q¿¤,¹Å¸q¿¤¤Ó«O¥«ªF¶Õ¨½8¾F82¸¹,23.4600688,120.333233
¸t¶ý°ó,¤T©h®Q,¹Å¸q¿¤,¹Å¸q¿¤¦µ¤l¥«Àn¥À¼d¦Ë§ø¨½1¾F3¤§1¸¹®Ç,23.444791,120.244964
¨ü¤Ñ®c,¥_·¥¥È¤Ñ¤W«Ò,¹Å¸q¿¤,¹Å¸q¿¤¤jªLÂí¤¤§|¨½14¾F¥Ð¼d12¸¹ªþ1,23.594459,120.597985
¸U¹ç®c,«O¥Í¤j«Ò,¹Å¸q¿¤,¹Å¸q¿¤¤jªLÂí¨F±[¤¤§|¨½4¾F176¸¹,23.5678056,120.3046446
¥_·¥·µ,¥È¤Ñ¤W«Ò,¹Å¸q¿¤,¹Å¸q¿¤¦µ¤l¥«¾¤©ú¸ô¦wºÖ¨½11¾F6¤§1¸¹,23.712061,120.429125
¶¶¤Ñ®c,"¤­©²¤d·³,¨·©²¤ý·Ý",¹Å¸q¿¤,¹Å¸q¿¤¦µ¤l¥«¶}¤¸¸ô³Õ«p¨½13¾F448¸¹,23.711981,120.438054
ºÖ¦w®c,¤­©²¤d·³,¹Å¸q¿¤,¹Å¸q¿¤¦µ¤l¥«¤¯©M¨½1¾F¤p?·}12¤§1¸¹,23.722176,120.4426766
¨¦«C©¥¤¸¦ë¦x,ÄÀ­{¦È¥§¦ò,¹Å¸q¿¤,¹Å¸q¿¤ªü¨½¤s¶m¼Ö³¥§ø¤G¤T¤@¸¹,23.5839902,120.2329169
µL·¥Åt¦®¤Ñ¤¸®c,¤¸©l¤Ñ¤ý,¹Å¸q¿¤,¹Å¸q¿¤µf¸ô¶m»Ø³»¤½¥Ð§ø¤­¾F¤C¤Q¤E¸¹,23.417655,120.651085
ºÖ¦w®c,ºÖ¼w¥¿¯«,¹Å¸q¿¤,¹Å¸q¿¤µf¸ô¶m¤½¥Ð¬q¥|¤Q¤§¤Q¤E¦a¸¹,23.4436557,120.5908831
¸q¼w°ó,¾G¦¨¥\,¹Å¸q¿¤,¹Å¸q¿¤³À¯ó¶m¥ú¼æ§ø253¤§1¸¹,23.526365,120.57796
¥Ã®õ®c,ªk¥D¤½¸t§g,¹Å¸q¿¤,¹Å¸q¿¤³À¯ó¶m«á¼d§ø4¾F24¸¹,23.3746329,120.1868925
¦Ë±T·O´f°ó,¤ý¥À®Q®Q,¹Å¸q¿¤,¹Å¸q¿¤¦Ë±T¶m¤ô©³¼d´_ª÷§ø¤­¾F¤G¤§¤@¸¹,23.526365,120.57796
¥¬³UÂí·Ë¥_ Âí¥_®c,§d©²¤d·³,¹Å¸q¿¤,¹Å¸q¿¤¥¬³UÂí®H¥J­íªF´ä¨½85¸¹,23.3746329,120.1868925
¤Ó¤Ñ®c,¹D¼w¤Ñ´L,¹Å¸q¿¤,¹Å¸q¿¤·s´ä¶mµæ¶é«n´ä§ø9¾F13¸¹,23.557926,120.316506
µµ¶³«F,³£¤ÑÆF¸t,¹Å¸q¿¤,¹Å¸q¿¤·s´ä¶m«r¥J¦Ëµæ¤½§ø3¾F24¸¹,23.547825,120.348261
ºÖ¦w®c,¤Ó¤l·Ý,¹Å¸q¿¤,¹Å¸q¿¤µf¸ô¶m¦Ë¤s¤ºÂ|¤Q¤G¾F(¤ºÂ|¬q¤»¤T¥|¤§¤Q¤G¦a¸¹),23.4584185,120.5236716
¥Ã¿³®c,¯«¹A¸t«Ò,¹Å¸q¿¤,¹Å¸q¿¤·Ë¤f¶m¬h¤l·¾¬h·¾§ø9¾F26¸¹,23.583224,120.417659
¹Å¸q¿¤¤jªLÂí¤jªL¤Ñ¦Z®c,¶ý¯ª,¹Å¸q¿¤,¹Å¸q¿¤¤jªLÂí´ò¤l¤T§ø¨½28¤§5¸¹,23.612245,120.464541
ªZ¤Ñ®c,¥È¤Ñ¤W«Ò,¹Å¸q¿¤,¹Å¸q¿¤¤Ó«O¥««á¼æ¨½450¸¹,23.4474131,120.3421901
¦òÄ_¦x,¥¿ªk©ú¦p¨Ó,¹Å¸q¿¤,¹Å¸q¿¤¦Ë±T¶m¼Ì¾ð©W¥Õ§û§ø¤Q¤G¾F¤@00¸¹,23.4920548,120.595149
Ä_¤Ñ®c,¥î¦~¤d·³,¹Å¸q¿¤,¹Å¸q¿¤·s´ä¶mªOÀY§ø13¾F99¤§1¸¹,23.569117,120.321346
¤T©x¤j«Ò¼q,¤T©x¤j«Ò,¹Å¸q¿¤,¹Å¸q¿¤·s´ä¶m¼æ¤j§ø8¾F¤j«È26¤§1¸¹,23.5328362,120.3237303
¹ÅÀ³¼q,¤EÀs¤T¤½,¹Å¸q¿¤,¹Å¸q¿¤¥¬³UÂí¤J²î¸ô¤EÀs¨½2¾F32¸¹,23.3781089,120.1573449
·s¶ó¤E­¦¤½¯¨,¤E­¦¤½¯«÷Î,¹Å¸q¿¤,¹Å¸q¿¤¥¬³UÂí´_¿³¨½25¾F669¤§1¸¹,23.3189712,120.161817
¥Ã¦w®c,½Ñ©²¤d·³,¹Å¸q¿¤,¹Å¸q¿¤¥¬³UÂí¤j¼d¥Ã¦w¨½4¾F117¸¹,23.3715597,120.1846738
¾_¤Ñ©²¼q,¤­©²¤d·³,¹Å¸q¿¤,¹Å¸q¿¤¥Á¶¯¶m¦n¦¬àT¦¬§ø14¾F144¸¹,23.562694,120.450899
·O¶³¦x,¦p¨Ó¦ò¯ª,¹Å¸q¿¤,¹Å¸q¿¤µf¸ô¶mÄ²¤f§ø¥|¾F¤@¤G¤G¸¹,23.4399219,120.5998528
¤Ñ»O·µ,¥É¬Ó¤j«Ò,¹Å¸q¿¤,¹Å¸q¿¤·Ë¤f¶mÅ|·Ë§ø¤­¾F¤Q¤­¸¹,23.6873415,120.4944128
²ÐÀ²®c,¤­©²¤d·³,¹Å¸q¿¤,¹Å¸q¿¤¸q¦Ë¶m·s©±§ø4¾F38¸¹,23.3385411,120.1968492
ºÑ¦w®c,¤Ñ¤W¸t¥À,¹Å¸q¿¤,¹Å¸q¿¤¦µ¤l¥«¤û¬DÆW±öµØ¨½19¾F129¤§10¸¹,23.4118693,120.2579583
«O¦w®c,¤­©²¤d·³,¹Å¸q¿¤,¹Å¸q¿¤¦µ¤l¥«®r«e¨½10¾F®r«e25¸¹,23.440478,120.235451
ªF¤Ñµµ·L®c,µµ·L¤j«Ò,¹Å¸q¿¤,¹Å¸q¿¤¤Ó«O¥«°ñ³Â¸}°ñ¶m¨½1¾F2¤§1¸¹,23.4866116,120.386584
¸q¦Ë­×½tÁI¦x,ÀÙ¤½¬¡¦ò,¹Å¸q¿¤,¹Å¸q¿¤¸q¦Ë¶m¤»®Û§ø17¾F245¤§10¸¹,23.3347186,120.2440951
¤T¬É¤½¼q,¤T©x¤j«Ò,¹Å¸q¿¤,¹Å¸q¿¤¥Á¶¯¶mªF¶Õ´òªF´ò§ø16¾F159¸¹,23.5489734,120.436214
Âí«n®c,ÃMªê¤ý·Ý¤½¡B¤g¦a¤½,¹Å¸q¿¤,¹Å¸q¿¤¥Á¶¯¶m¡£¥Á«n¬q746¦a¸¹¡¤ªFºa§ø26¾F,23.5378901,120.4576861
¸t®¦®c,¤Ñ¤W¤T¸t¥À(¶ý¯ª),¹Å¸q¿¤,¹Å¸q¿¤¥¬³UÂí«á¾À¼d®¶¼d¨½4¾F181¸¹,23.386635,120.1809524
ºÖ¼w®c,ºÖ¼w¥¿¯«,¹Å¸q¿¤,¹Å¸q¿¤¥¬³UÂí¶QªÙ¨½¥b¤ë64¸¹,23.436382,120.208866
¹Å¸q¿¤¥¬³UÂí¹L·¾¦w·Ë«°¶ª¼q,¦w·Ë¤T«°¶ª·Ý,¹Å¸q¿¤,¹Å¸q¿¤¥¬³UÂí¹L·¾ªF¶ÕÀYªF¦w¨½4¾F144¸¹,23.415731,120.194733
³À¦w®c,½Ñ©²¤d·³,¹Å¸q¿¤,¹Å¸q¿¤¥¬³UÂí³À¼d¥J¦Ò¸Õ¨½6¾F13¸¹,23.397494,120.200752
¾_¦w®c,¥È¤Ñ¤W«Ò,¹Å¸q¿¤,¹Å¸q¿¤¤¤®H¶m³»®H§ø8¾F11¸¹,23.412274,120.529232
ªZ¸t·µ,¤å¿Å¸t«Ò,¹Å¸q¿¤,¹Å¸q¿¤¸q¦Ë¶m©x¶¶§ø8¾F309¸¹,23.306097,120.184682
·O¶³¦x,ÄÀ­{¦ò¯ª,¹Å¸q¿¤,¹Å¸q¿¤ªü¨½¤s¶m­»ªL§ø¤G¾F44¸¹,23.5172496,120.8076591
«üÆF®c,«nµLÀÙ¤½ÁI®v,¹Å¸q¿¤,¹Å¸q¿¤¦µ¤l¥«·Ë¤f¨½6¾F181¤§1¸¹,23.4609107,120.249941
¥N¤Ñ®c,¨·©²¤d·³,¹Å¸q¿¤,¹Å¸q¿¤¦µ¤l¥«¤å¤Æ¥_¸ô¤å¤Æ¨½8¾F27¸¹,23.464513,120.2412106
¤T¤ý©²,¤T¤d·³,¹Å¸q¿¤,¹Å¸q¿¤¦µ¤l¥«Àn¥À¼d12¾F471«Ñ59¸¹ªþ1,23.5172496,120.8076591
¥ú¥¿¸U±Ð·µ,¥É¬Ó¤j¤Ñ´L,¹Å¸q¿¤,¹Å¸q¿¤¤¤®H¶m¤Q¶ô­íªÀ¤f§ø¤Q¤­¾F¤Q¤­¸¹¤§¤@,23.464513,120.2412106
ªQ¤ý¼q,ªQ¤ý¡BíB¤ý,¹Å¸q¿¤,¹Å¸q¿¤·s´ä¶m¤j¼æ§ø19¾F1¸¹,23.552736,120.367613
¤T¥P°ê¤ý¼q,¤T¤s°ê¤ý,¹Å¸q¿¤,¹Å¸q¿¤·s´ä¶m¸³­í¦@©M§ø1¾F9¸¹,23.561061,120.331252
¥ú¤Ñ®c,¼Ä¤Ñ¤j«Ò,¹Å¸q¿¤,¹Å¸q¿¤·s´ä¶m¤ë¬Ü¼æ¤ë¬Ü§ø4¾F56¸¹,23.5208478,120.3527025
Ò\©m¶}°ò¯ª¼q,¤Ñ¤W¸t¥À,¹Å¸q¿¤,¹Å¸q¿¤¦µ¤l¥«¤j¶m¨½3¾F¤j?·}195¸¹,23.4581618,120.2624729
¥Û¨®¤½¼q,¥Û¨®¤½,¹Å¸q¿¤,¹Å¸q¿¤¦µ¤l¥«¤j¸¯¨½11¾F¤j?·}1¤§3¸¹ªþªñ,23.4578378,120.290984
Às¦w®c,¤­©²¤d·³,¹Å¸q¿¤,¹Å¸q¿¤¦µ¤l¥«¤û¬DÆWªQµØ¨½12¾F218¸¹,23.410296,120.252039
¸t¼w°ó,¸t¼w¤¸«Ó,¹Å¸q¿¤,¹Å¸q¿¤¦µ¤l¥«­W¥Ê¼d¨Î¥Ý¨½1¾F60¤§1¸¹®Ç,23.450353,120.257113
ºÖ¼w¯¨,ºÖ¼w¥¿¯«,¹Å¸q¿¤,¹Å¸q¿¤µf¸ô¶m¤jÉÜ·sºÖ§ø¤»¾F¤Q¥|¸¹,23.458475,120.530321
¥Ã¸S®c,¤T¤s°ê¤ý,¹Å¸q¿¤,¹Å¸q¿¤·s´ä¶m¤¤ÉÜ§ø12¾F97¸¹,23.5693129,120.3463103
ºÖ¼w®c,ºÖ¼w¥¿¯«,¹Å¸q¿¤,¹Å¸q¿¤·s´ä¶m¬qºë©¾¤p¬q¤j¼æ§ø702¦a¸¹,23.5597912,120.3303338
¥ÈÀÙ®c,¥È¤Ñ¤W«Ò,¹Å¸q¿¤,¹Å¸q¿¤¤jªLÂí¤ºªL¨½38¤§1¸¹,23.6097842,120.4890434
¼w©M°ó,Æ[­µ¦ò¯ª,¹Å¸q¿¤,¹Å¸q¿¤·Ë¤f¶m¥»ÆU¥»­í§ø5¾F22¸¹,23.579434,120.387785
¤Q¤è¦æ¹D°ó,Æ[­µ¤j¤h,¹Å¸q¿¤,¹Å¸q¿¤¤jªLÂí¤WªL¨½10¾F44¸¹ªþ1,23.583734,120.470082
¥N¤Ñ®c,¥È¤Ñ¤W«Ò,¹Å¸q¿¤,¹Å¸q¿¤¤jªLÂí³Â¶é¼d¤WªL¨½10¤§1¸¹,23.5757397,120.4801629
¼s¦w®c,ÃMªê´L¤ý,¹Å¸q¿¤,¹Å¸q¿¤¤jªLÂíªL¤l«e¤T©M¨½6¾F31¸¹¤§6,23.601408,120.480644
¶}¤¸·µ,¶}¥x´L¤ý,¹Å¸q¿¤,¹Å¸q¿¤·Ë¤f¶m®ãªL§ø1¾F1¤§2¸¹,23.6037191,120.3747266
¥ÈÆF®c,¤E¤Ñ¥È¤k,¹Å¸q¿¤,¹Å¸q¿¤¥Á¶¯¶m¼B¦Ë¥J¸}¿³¤¤§ø2¾F7¤§2¸¹,23.530788,120.421894
¹Å¸q¿¤¥Á¶¯¶mªê§À¼d¦ò·O®c,«n®üÆ[­µµÐÂÄ,¹Å¸q¿¤,¹Å¸q¿¤¥Á¶¯¶mªê§À¼dÂí¥_§ø3¾F16¤§8¸¹,23.577546,120.442657
³Õ¦w®c,¤­©²¤d·³,¹Å¸q¿¤,¹Å¸q¿¤¸q¦Ë¶m¤¤¥­§ø9¾F28¸¹,23.362695,120.275451
¥¿¼w¦x,Æ[­µµÐÂÄ,¹Å¸q¿¤,¹Å¸q¿¤µf¸ô¶m³»¨¤¥J¦¿¦è§ø¤­¾F¤G¤Q¤§¤@¸¹,23.4764902,120.5224945
¤¤¿³®c,¤­©²¤d·³,¹Å¸q¿¤,¹Å¸q¿¤¸q¦Ë¶m¤¤¥­§ø3¾F50¸¹,23.3578107,120.2792142
ºÖ¦w®c,§õ©²¤d·³,¹Å¸q¿¤,¹Å¸q¿¤¸q¦Ë¶mªF¹L§ø9¾F98¸¹,23.3026188,120.2137665
¼s¿³®c,À¹¤j¤ý,¹Å¸q¿¤,¹Å¸q¿¤¥Á¶¯¶mªF´ò¥JªQ¤s§ø10¾F8¸¹,23.548532,120.477597
©^¤Ñ®c,¤ý·Ý¤½,¹Å¸q¿¤,¹Å¸q¿¤¤jªLÂí¤¤§|¨½6¾F7¸¹,23.5877063,120.5029888
ºÖ¼w·Ý¼q,ºÖ¼w·Ý,¹Å¸q¿¤,¹Å¸q¿¤¤jªLÂí¤¤¥¿¸ô¦NªL¨½514«Ñ12¸¹(¥«³õ¤º),23.6066891,120.4575517
¤jªLÂí¤j²³·Ý¤½¼q,¤j²³·Ý,¹Å¸q¿¤,¹Å¸q¿¤¤jªLÂí¹L·¾¥J¥­ªL¨½58¸¹,23.600615,120.4585533
«O¦w®c,¤ý®]¤j¨Ï,¹Å¸q¿¤,¹Å¸q¿¤¤jªLÂí¦èµ²¨½4¾F70¸¹,23.612136,120.414719
µ½¿³®c,ªQ¾ð¤ý,¹Å¸q¿¤,¹Å¸q¿¤¤jªLÂí¼æáY¤T§ø¨½1¾F9¸¹,23.628731,120.47741
´Â¤Ñ®c,§õ©²¤d·³,¹Å¸q¿¤,¹Å¸q¿¤¸q¦Ë¶m¦è¹L§ø10¾F350¸¹,23.305571,120.200901
¥È©ú®c,¥È¤Ñ¤W«Ò,¹Å¸q¿¤,¹Å¸q¿¤¥Á¶¯¶m³»±[§ø11¾F1¤§2¸¹,23.5626242,120.4621658
¤j¨Ï·Ý¼q,¤j¨Ï·Ý,¹Å¸q¿¤,¹Å¸q¿¤¥Á¶¯¶mÂÐ¹©ª÷¥_¤æ§ø47¸¹,23.522952,120.460964
ºÖ¼w®c,ºÖ¼w¥¿¯«,¹Å¸q¿¤,¹Å¸q¿¤¸q¦Ë¶m·Ë¬w§ø11¾F31¸¹,23.392871,120.248012
«O¥Í¤j«Ò·Ý¼q,«O¥Í¤j«Ò,¹Å¸q¿¤,¹Å¸q¿¤¥Á¶¯¶m¤s¤l¸}àT¦¬§ø20¾F40¸¹,23.561295,120.461474
¿ÍÆ[ºëªÙ,¦è¤è¤T¸t,¹Å¸q¿¤,¹Å¸q¿¤µf¸ô¶mÀs¬ü¤½¿³§ø¤E¤§¤G¸¹,23.4047049,120.6497459
°]¹Îªk¤H¥Á¶¯«O¦w®cÃMªê¤ý¼q,ÃMªê´L¤ý,¹Å¸q¿¤,¹Å¸q¿¤¥Á¶¯¶m¤å¤Æ¸ô¤¤¼Ö§ø37¸¹,23.552989,120.429634
Âí¦w®c,¥È¤Ñ¤W«Ò,¹Å¸q¿¤,¹Å¸q¿¤¥Á¶¯¶m¤Q¥|¥Ò¤j±T§ø10¾F22¸¹,23.5221852,120.4749239
¥Á©M¤T¤T¤T­ìÆF¯ó«Î®c,Æ[­µ¤j¤h,¹Å¸q¿¤,¹Å¸q¿¤¸q¦Ë¶m¤û¸Y©³·s´I§ø36¤§1¸¹,23.319627,120.223589
·Ë¦w®c,¤s¦è¤Ò¤l,¹Å¸q¿¤,¹Å¸q¿¤¤ô¤W¶m·Ë¬w§ø11¾F92¸¹,23.41614,120.395246
¸t½å®c,Ãö¸t«Ò§g,¹Å¸q¿¤,¹Å¸q¿¤¤jªLÂí¤¤ªL¨½21¾F¤U¼æ©³3¤§3¸¹,23.5905648,120.4600283
¦wºÖ®c,¦À©²¤d·³,¹Å¸q¿¤,¹Å¸q¿¤¦µ¤l¥«¤s³q¸ô¦wºÖ¨½5¾F82¸¹,23.466875,120.2471066
¨|¾¤®c,«°¶ª,¹Å¸q¿¤,¹Å¸q¿¤¦µ¤l¥«¤j¶m¨½3¾F¤j?·}196¸¹,23.4581618,120.2624729
ªk«B¹D³õ,ÄÀ­{¦È¥§¦ò,¹Å¸q¿¤,¹Å¸q¿¤¤¤®H¶m¦P¤¯§ø¤G¤Q¤@¾F¬c¤l¦v¤­¤Q¤§¤»¸¹,23.4112718,120.4876141
ºÖªF®c,Æ[­µµÐÂÄ,¹Å¸q¿¤,¹Å¸q¿¤¥Á¶¯¶m¸q¾ô¿³¤¤§ø1¾F38¤§1¸¹,23.5303563,120.4263861
ºÖ¦w¯¨,¤j²³·Ý,¹Å¸q¿¤,¹Å¸q¿¤¥Á¶¯¶m¥ÁÅv¸ô¼d³»§ø13¾F42¸¹¤§1,23.5600571,120.430952
¼w¿³¦x,Æ[­µ¦ò¯ª,¹Å¸q¿¤,¹Å¸q¿¤¸q¦Ë¶mªF¥ú§ø9¾F169¸¹,23.37015,120.249647
©^Às®c,Æ[­µ¤j¤h,¹Å¸q¿¤,¹Å¸q¿¤¤j®H¶m©WªL­XÐ¤§ø¤C¾F¤Q¤G¤§¤@¸¹,23.247445,120.630048
¤T¥P®c,¤T¥P°ê¤ý,¹Å¸q¿¤,¹Å¸q¿¤·Ë¤f¶m·Ë©ú·Ë¥_§ø13¾F6¸¹,23.603203,120.393328
¤­©²¤d·³¼q,¶À´Ü©²¤d·³,¹Å¸q¿¤,¹Å¸q¿¤¤jªLÂí±Æ¸ô¨½9¾F166¸¹,23.6130042,120.4246244
´Â¿³®c,¤Ñ¤W¸t¥À,¹Å¸q¿¤,¹Å¸q¿¤¤jªLÂí±Æ¤l¸ô±Æ¸ô¨½1¾F18¸¹,23.6134249,120.4285017
¤TÄ_ªù«O¦w©²,¼s¿A´L¤ý,¹Å¸q¿¤,¹Å¸q¿¤µf¸ô¶m¤U§|§ø¤Q¾F§|¥J¤º¤Q¤»¸¹ªþ¤G,23.4878378,120.5362845
§®ªkÂÃµÐ´£¦x,¤d¤â¤d²´Æ[¥@­µµÐÂÄ,¹Å¸q¿¤,¹Å¸q¿¤µf¸ô¶mµf¸ô§ø·Ë©³¤@¤§¤@¸¹,23.462629,120.561414
°]¹Îªk¤H»OÆW¬Ù¹Å¸q¿¤·s´ä©^¤Ñ®c,¤Ñ¤W¸t¥À,¹Å¸q¿¤,¹Å¸q¿¤·s´ä¶m·s¥Á¸ô¤j¿³§ø¤T¾F¤­¤Q¤T¸¹,23.5565216,120.3478751
¥j¤s®c,¨ä¥L,¹Å¸q¿¤,¹Å¸q¿¤ªü¨½¤s¶m°ê¦³ªü¨½¤s¨Æ·~°Ï²Ä¤@¤»¤»¸¹ªL¯Z¦a,23.508902,120.802147
´¶ÀÙ®c,©ú©ú¤W«Ò,¹Å¸q¿¤,¹Å¸q¿¤¤jªLÂí¤T¶ô­í¸q©M¨½1¾F157¸¹,23.6077164,120.487597
ªk¶©¦x,¦è¤è¤T¸t,¹Å¸q¿¤,¹Å¸q¿¤¤Ó«O¥««á¼æ¨½424¤§12¸¹,23.4494652,120.3415275
¤d¦~®c,Æ[­µ¦ò¯ª,¹Å¸q¿¤,¹Å¸q¿¤¥Á¶¯¶m·sÉÜ¤¤¥¡§ø1¾F30¸¹,23.5349681,120.4039278
Ä£©ú®c,¦À©²¤ý·Ý,¹Å¸q¿¤,¹Å¸q¿¤¥Á¶¯¶mÀY¾ô¿³«n§ø2¾F99¸¹,23.5226051,120.437696
³¯ºÖ¼w·Ý¼q,ºÖ¼w¥¿¯«,¹Å¸q¿¤,¹Å¸q¿¤¥Á¶¯¶m³¯­í¼d¤T¿³§ø5¾F47¸¹,23.5572118,120.4786686
¶°¤¸®c,¤T¤¸«Ó,¹Å¸q¿¤,¹Å¸q¿¤·Ë¤f¶m¤U­ûªLÅ|·Ë§ø3¾F106¤§1¸¹,23.591432,120.4424549
Âí¦ë®c,¤­¦~¤d·³,¹Å¸q¿¤,¹Å¸q¿¤·Ë¤f¶mªL¸}§ø6¾F141¸¹,23.6043589,120.3702047
ªZ­^·µ,¶}¥x´L¤ý,¹Å¸q¿¤,¹Å¸q¿¤·Ë¤f¶m´å¦è§ø6¾F45¸¹,23.6172009,120.39347
Às¦w®c,§õ©²¤d·³,¹Å¸q¿¤,¹Å¸q¿¤¦µ¤l¥«¤j¶m¨½14¾F¤j?·}287¸¹,23.4581618,120.2624729
¥Û½X®c,ªL©²¤¸«Ó,¹Å¸q¿¤,¹Å¸q¿¤¦µ¤l¥«Âù·Ë¤fÂù·Ë¨½4¾F37¸¹,23.4847492,120.2792993
Às¾ð«F,Æ[­µ¦ò¯ª,¹Å¸q¿¤,¹Å¸q¿¤¦µ¤l¥«¤º­í¨½7¾F58¸¹,23.470285,120.24448
©ú¼w¦ò¦x,ÄÀ­{¦È¥§¦ò,¹Å¸q¿¤,¹Å¸q¿¤¤jªLÂí·¾­I¨½6¾F119¸¹,23.618442,120.4861639
ÀR­×ºëªÙ,ÄÀ­{¦È¥§¦ò,¹Å¸q¿¤,¹Å¸q¿¤¦µ¤l¥«¥«ªF¸ô¥­©M¨½2¾F33¸¹,23.4622929,120.2463189
¥P¤Ñ®c,ªL©²¤d·³,¹Å¸q¿¤,¹Å¸q¿¤¦µ¤l¥«À³µæ®H¥Ã©M¨½76¸¹,23.4633593,120.2323165
ÀsÁô¦x,ÀÙ¤½ÁI®v,¹Å¸q¿¤,¹Å¸q¿¤µf¸ô¶mÄ²¤f§ø¤Q¥|¾F¤@¸¹,23.4436557,120.5908831
¹Å¸q¿¤µf¸ô¶m¥b¤Ñ©¥µµ¶³¦x,Æ[­µ¦ò¯ª,¹Å¸q¿¤,¹Å¸q¿¤µf¸ô¶m©¥¥J¥Á©M§ø¤G¾F¤»¸¹,23.4623272,120.5953387
¶ý¯ª¼q´Â¤Ñ®c,¤Ñ¤W¸t¥À,¹Å¸q¿¤,¹Å¸q¿¤¤jªLÂí¦­ª¾´ò¥_¨½10¾F19¸¹,23.62025,120.4517706
«O¦w®c,¤­©²¤d·³,¹Å¸q¿¤,¹Å¸q¿¤¸q¦Ë¶m¥­·Ë§ø5¾F68¸¹,23.349924,120.213056
©¾¸q¤¸«Ó¼q,¥|¤Q¤E¤½,¹Å¸q¿¤,¹Å¸q¿¤¸q¦Ë¶m¤T¸}¿ß°ñ«e§ø12¾F2ªþ3¸¹,23.350542,120.228358
Ä_ªLÁI¦x,"¤TÄ_¦ò,Æ[¥@­µµÐÂÄ",¹Å¸q¿¤,¹Å¸q¿¤¥Á¶¯¶m«á¤s¥JªQ¤s§ø8¾F38¤§2¸¹,23.540941,120.502299
íB¥J¤ý¼q,íB¥J¤ý,¹Å¸q¿¤,¹Å¸q¿¤¥Á¶¯¶mµ×®H§ø130¸¹,23.558176,120.397438
¼s¦w®c,¤T¤s°ê¤ý,¹Å¸q¿¤,¹Å¸q¿¤¥Á¶¯¶m¦¿­í©±¿³¤¤§ø4¾F12¸¹,23.5244025,120.4217402
«O¦w®c,«O¥Í¤j«Ò,¹Å¸q¿¤,¹Å¸q¿¤¥Á¶¯¶mÂùºÖ§ø7¾F60¸¹,23.5342869,120.4420628
¸Uµ½°ó,¸Uµ½¤½,¹Å¸q¿¤,¹Å¸q¿¤¸q¦Ë¶m¹L¸ô¤l¬q¹L¸ô¤p¬q11¸¹,23.3052406,120.2066232
»ñ¤s®c,¼s¿A´L¤ý,¹Å¸q¿¤,¹Å¸q¿¤¸q¦Ë¶m·Ë¬w§ø7¾F20¤§1¸¹,23.3905252,120.2427586
«O¦w®c,©¨­¸¤¸«Ó,¹Å¸q¿¤,¹Å¸q¿¤¸q¦Ë¶m¤­­í§ø2¾F81¸¹,23.356771,120.273391
«O¦w®c,«O¥Í¤j«Ò,¹Å¸q¿¤,¹Å¸q¿¤¤ô¤W¶m©±¿³µó¤ô¤W§ø6¾F152«Ñ16¸¹,23.4297179,120.3947992
Às¤s¦x,¦À©²¤d·³,¹Å¸q¿¤,¹Å¸q¿¤¤ô¤W¶m³»¹L·¾¤jÔ³§ø12¾F19¸¹,23.4307788,120.3709521
¸t¦w®c,¤Ñ¤W¸t¥À,¹Å¸q¿¤,¹Å¸q¿¤¤ô¤W¶m¬h¤lªL¬hªL§ø192¤§45¸¹,23.433262,120.417495
¹ÅÀ³®c,¤EÀs¤T¤½,¹Å¸q¿¤,¹Å¸q¿¤¸q¦Ë¶m¥_µØ§ø9¾F101¸¹,23.3492366,120.1964522
ºÖ¼w·Ý¼q,ºÖ¼w¥¿¯«,¹Å¸q¿¤,¹Å¸q¿¤¥Á¶¯¶m¦n¦¬àT¦¬§ø16¾F73¸¹¤§10,23.5578155,120.4406318
¶¶¤Ñ®c,¤­©²¤d·³,¹Å¸q¿¤,¹Å¸q¿¤¥Á¶¯¶m¥Ð¤¤¥¡¤¤¥¡§ø12¾F77¸¹,23.5349681,120.4039278
°]¹Îªk¤H¹Å¸q¿¤¥Á¶¯«O¦w®cÃMªê¤ý¼q,,¹Å¸q¿¤,¹Å¸q¿¤¥Á¶¯¶m¤å¤Æ¸ô¤¤¼Ö§ø¤T¤Q¤C¸¹,23.552989,120.429634
®¶¼d®c,½Ñ©²¤d·³,¹Å¸q¿¤,¹Å¸q¿¤¥¬³UÂí«á¾À¼d®¶¼d¨½142¸¹,23.386635,120.1809524
¤ý¤Ñ®c,¤ý©²¤¸«Ó,¹Å¸q¿¤,¹Å¸q¿¤¥¬³UÂí·ËáY¬q¤p¬q424¦a¸¹(µæçE¨½8¾F),23.4024104,120.2175951
ªF®c¼q,¤Ó¤l·Ý,¹Å¸q¿¤,¹Å¸q¿¤¥¬³UÂí«á¼d¸ô¿³¤¤¨½48¸¹,23.3790576,120.158438
«O¦w®c,¦À¤ý·Ý,¹Å¸q¿¤,¹Å¸q¿¤¤¤®H¶m¥q¤½?©M·ü§ø1¾F3ªþ5¸¹,23.44895,120.475948
¥¬³UºÖ¦w¾Â²b·O¦x,ÀÙ¤½,¹Å¸q¿¤,¹Å¸q¿¤¥¬³UÂí¦Ò¸Õ¼æ¬q¦Ò¸Õ¤p¬q109¦a¸¹,23.3999119,120.2003197
ªZ¦w®c,±d©²¤d·³,¹Å¸q¿¤,¹Å¸q¿¤¤¤®H¶m¾ðÀY®H¸q¤¯§ø¤Q¤­¾F(¬q424¸¹),23.446641,120.5227
¨üÂí®c,¥È¤Ñ¤W«Ò,¹Å¸q¿¤,¹Å¸q¿¤ªü¨½¤s¶m­»ªL§ø¤G¾F¥|¤Q¤­¸¹,23.5176356,120.8106112
¸Î¥Áµµ¦Ë¦x,Æ[­µ¦ò¯ª,¹Å¸q¿¤,¹Å¸q¿¤¤¤®H¶m¥ÛÀY­í¸Î¥Á§ø¥|¾F¥|¤Q¤@¤§¤T¸¹,23.431253,120.510933
ª÷¤Ñ®c,¥È¤Ñ¤W«Ò,¹Å¸q¿¤,¹Å¸q¿¤¤¤®H¶mËN¤ô§ø¤Q¥|¾F¦ËÀY±T¤»¤Q¸¹,23.3979381,120.5222139
§d»ñ¼q,§d»ñ¤½,¹Å¸q¿¤,¹Å¸q¿¤¤¤®H¶mªÀ¤f§ø¤G¤Q¤T¾F¤G¤Q¤G¸¹,23.4439372,120.5437532
¤T¯¬®c,¤Ñ¤W¸t¥À,¹Å¸q¿¤,¹Å¸q¿¤¤ô¤W¶m¤T¬É§ø9¾F196¸¹,23.426079,120.472259
¤Ñ¥PÁI¦x,ÄÀ­{¦È¥§¦ò,¹Å¸q¿¤,¹Å¸q¿¤¥Á¶¯¶m³¯­í¼d¤T¿³§ø2¾F18¤§5¸¹,23.548532,120.477597
«O¦w®c,«O¥Í¤j«Ò,¹Å¸q¿¤,¹Å¸q¿¤¥Á¶¯¶mºÖÅv§ø3¾F26¸¹,23.5651506,120.4126088
¶i¿³®c,ÁÂ©²¤¸«Ó,¹Å¸q¿¤,¹Å¸q¿¤¤ô¤W¶m¤jÔ³§À¤jÔ³§ø2¾F12¸¹,23.4318568,120.3780081
ºÖ¦w®c,¤­©²¤d·³,¹Å¸q¿¤,¹Å¸q¿¤¤Ó«O¥«¹L·¾¨½10¾F¥Ë­í26¸¹,23.4915465,120.3534798
ºÖ¤Ñ®c,¥È¤Ñ¤W«Ò,¹Å¸q¿¤,¹Å¸q¿¤¤Ó«O¥«³»´ä¤láY¦w¤¯¨½5¾F10¸¹,23.445113,120.295487
ºÖ¦w®c,ºÖ¼w¥¿¯«,¹Å¸q¿¤,¹Å¸q¿¤¤»¸}¶m¤j¶î®v¶î®v§ø¬q65¸¹,23.506612,120.282863
¥È¦w¼q,¥È¤Ñ¤W«Ò,¹Å¸q¿¤,¹Å¸q¿¤¤»¸}¶m¥jªL¬q¥jªL¤p¬q¥jªL§ø1¾F156¸¹,23.484817,120.2265
¥N¤Ñ©²,¤­©²¤d·³,¹Å¸q¿¤,¹Å¸q¿¤¤»¸}¶m´ä¬ü§ø84¤§1¸¹,23.5323152,120.2945362
ª÷ªL¦x,Æ[­µ¦ò¯ª,¹Å¸q¿¤,¹Å¸q¿¤¤jªLÂí·¾­I¨½13¾F281¸¹,23.6139657,120.4874407
«O¦w®c,«O¥Í¤j«Ò,¹Å¸q¿¤,¹Å¸q¿¤¤jªLÂí¤¤ªL¤¤ªL¨½15¾F105¸¹,23.5983429,120.4687723
©^¦w®c,¤ý©²¤j¨Ï,¹Å¸q¿¤,¹Å¸q¿¤·Ë¤f¶m¤Ñ³j¬ü«n§ø10¾F14¤§4¸¹,23.586207,120.3742529
§®½¬ÁI¦x,¤TÄ_¦ò,¹Å¸q¿¤,¹Å¸q¿¤¤ô¤W¶m¤Uµæ¶é¸q¿³§ø8¾F15¤§1¸¹,23.419607,120.414659
Ä_¤s¦x,ÄÀ­{¦È¥§¦ò,¹Å¸q¿¤,¹Å¸q¿¤¤jªLÂí¤¤§|¨½17¾FË|¿¼¤s15¸¹,23.564617,120.51628
­í¤l«O¥Í®c,«O¥Í¤j«Ò,¹Å¸q¿¤,¹Å¸q¿¤·Ë¤f¶m­í¤l¥»­í§ø15¾F9¤§2¸¹,23.567219,120.402193
¼z¥ú¦x,ÄÀ­{¦È¥§¦ò,¹Å¸q¿¤,¹Å¸q¿¤¦µ¤l¥«±öµØ¨½16¾F153¤§10¸¹,23.4098966,120.2555848
¼w¦w®c,«O¥Í¤j«Ò,¹Å¸q¿¤,¹Å¸q¿¤¦µ¤l¥«¼w¿³¨½1¾F·s¦NÉÜ4¸¹,23.4719635,120.2648688
ºÖ¼w®c,ºÖ¼w¥¿¯«,¹Å¸q¿¤,¹Å¸q¿¤¤ô¤W¶mÀs¼w§ø1¾F12¸¹,23.4267709,120.3867834
¬P«ý·µ,¥È¤Ñ¤W«Ò,¹Å¸q¿¤,¹Å¸q¿¤¤ô¤W¶m¤U¼d§ø3¾FÂF·Ë¼d24¸¹,23.456825,120.420818
·sºÖ®c,¤½¤l·Ý,¹Å¸q¿¤,¹Å¸q¿¤¦µ¤l¥«·s¼d¨½6¾F·s¼d10¸¹,23.451703,120.239341
¨µ¤Ñ®c,¤­©²¤d·³,¹Å¸q¿¤,¹Å¸q¿¤¦µ¤l¥«¶¶¤Ñ¨½7¾F«n³q¸ô¤T¬q916¸¹,23.4668446,120.242055
¥È¤Ñ®c,¥È¤Ñ¤W«Ò,¹Å¸q¿¤,¹Å¸q¿¤¤»¸}¶m¤»¤æ§À¤»¤æ§ø12¸¹,23.543102,120.294839
®Q¶ý°ó,®Q¶ý,¹Å¸q¿¤,¹Å¸q¿¤¤»¸}¶mÆW¤ºÆW«n§ø8¾F8¸¹,23.5001771,120.3123533
Âí¦w®c,¤­¦~¤d·³,¹Å¸q¿¤,¹Å¸q¿¤¦µ¤l¥«¤U¦Ë³ò¦Ë³ò¨½¤@¾F¤@¸¹,23.460263,120.245926
¶¶¤Ñ®c,¤­¤ý·Ý,¹Å¸q¿¤,¹Å¸q¿¤¤»¸}¶m¤»¸}§ø56¸¹,23.5058313,120.2530191
¤­¦w®c,Á§¤ý·Ý,¹Å¸q¿¤,¹Å¸q¿¤¤»¸}¶m»[ÀY§ø13¾F187¤§20¸¹,23.4940741,120.2907983
·O¦w®c,Æ[­µ¦ò¯ª,¹Å¸q¿¤,¹Å¸q¿¤¦Ë±T¶m¬a¥J¦v¥úµØ§ø¤­¾F¤G¤T¤§¤@¸¹,23.466099,120.656081
¥ÈÀs¦x,ÄÀ­{¦È¥§¦ò,¹Å¸q¿¤,¹Å¸q¿¤¦Ë±T¶mÆW¾ô§ø¤G¤K¤­¸¹,23.4966663,120.5038159
­W¦Ë¦x,Æ[­µ¦ò¯ª,¹Å¸q¿¤,¹Å¸q¿¤¤ô¤W¶m¬hªL§ø5¾F45¸¹,23.4333499,120.4173047
¸q¥Á¼q,¸q¥Á¤T¤½,¹Å¸q¿¤,¹Å¸q¿¤¤ô¤W¶m¤j±[§ø18¾F48¤§5¸¹,23.4457239,120.3608455
«O¦w®c,¦À©²¤d·³,¹Å¸q¿¤,¹Å¸q¿¤¸q¦Ë¶mÀY¦Ë§ø6¾F70¸¹,23.336116,120.231072
¤W«Ò·Ý¼q,¥È¤Ñ¤W«Ò,¹Å¸q¿¤,¹Å¸q¿¤¥Á¶¯¶m¸­¤l¼dªF¿³§ø5¾F44¸¹,23.562817,120.498252
¤T¤¸«Ó¼q,¤T¤¸«Ó,¹Å¸q¿¤,¹Å¸q¿¤¥Á¶¯¶m³»±[§ø8¾F26¤§1¸¹,23.5667643,120.4400839
«O¦w®c,§õ©²¤d·³,¹Å¸q¿¤,¹Å¸q¿¤¸q¦Ë¶m¦è¹L§ø2¾F491¸¹,23.3033829,120.2004059
¹Å¸q¿¤¥Á¶¯¶mºÖ¿³®c,ºÖ¼w¥¿¯«,¹Å¸q¿¤,¹Å¸q¿¤¥Á¶¯¶m«Ø°ê¸ô¤@¬qªFºa§ø8¾F31«Ñ25¤§5¸¹,23.554765,120.433633
Æ[­µ¦x¼q,Æ[¥@­µ,¹Å¸q¿¤,¹Å¸q¿¤¥Á¶¯¶m¤j¥C¶é¤j±T§ø5¾F9¸¹,23.5273988,120.4665748
ªZ©¾®c,¥È¤Ñ¤W«Ò·Ý,¹Å¸q¿¤,¹Å¸q¿¤¤ô¤W¶mÂb·}¾ð¨¤©¾©M§ø3¾F17¸¹,23.421517,120.443067
«O¦w®c,¤­©²¤d·³,¹Å¸q¿¤,¹Å¸q¿¤³À¯ó¶m¦Ë¤s§ø193¸¹,23.3946292,120.287535
­»¥ú¦x,Æ[¥@­µµÐÂÄ,¹Å¸q¿¤,¹Å¸q¿¤¦Ë±T¶m·Ë¦{¤º®H§ø¤Q¤C¾F¥|¤Q¤E¸¹¤§¤@,23.48721,120.554993
µØ«Ê°ó,¨½¥D´L¤ý,¹Å¸q¿¤,¹Å¸q¿¤³À¯ó¶m¬I®a§ø10¾F41¸¹,23.39321,120.305741
§E·O¼q,§E·O·Ý¤½,¹Å¸q¿¤,¹Å¸q¿¤³À¯ó¶m«á¼d§ø8¾F60¤§1¸¹,23.4343073,120.3238079
Às¤s©¥,Æ[¥@­µµÐÂÄ,¹Å¸q¿¤,¹Å¸q¿¤¦Ë±T¶m¹L§|Às¤s§ø¤Q¤»¾F¤Q¤C¸¹,23.515581,120.57066
¥ú¸S¼q,¥ñÅ]¤½,¹Å¸q¿¤,¹Å¸q¿¤¦Ë±T¶m´ò©³´_ª÷§ø¤Q¤»¾F¤Q¤§¤@¸¹,23.541995,120.561299
¶í¤U¼dªZ·í¤s¼q,¥È¤Ñ¤W«Ò,¹Å¸q¿¤,¹Å¸q¿¤¦Ë±T¶m¶í¤U¼d¶í¿³§ø¤Q¥|¤§¤@¸¹,23.494339,120.569485
µL·¥¤Ñ¤j«Â·µ,¯«Às¥P©h,¹Å¸q¿¤,¹Å¸q¿¤¤»¸}¶m¤UÂù·Ë¥¿¸q§ø16¾F383¤§1¸¹,23.481448,120.252524
¥È¤Ñ®c,¥È¤Ñ¤W«Ò,¹Å¸q¿¤,¹Å¸q¿¤¤»¸}¶m³½¼d§ø62¸¹,23.5176492,120.2489722
¥N¤Ñ©²,¦À©²¤d·³,¹Å¸q¿¤,¹Å¸q¿¤¤»¸}¶m¤T¸q§ø78¸¹,23.520606,120.287155
¤j¤Ñ®c,¯«¹A¸t«Ò,¹Å¸q¿¤,¹Å¸q¿¤¦Ë±T¶m·àÔ±§ø¤Q¥|¾F·à¥JÀY¬q¤E¤Q¤@¸¹,23.524292,120.506204
«O¦w®c,ºÖ¼w¥¿¯«,¹Å¸q¿¤,¹Å¸q¿¤¦Ë±T¶m¤¤©M§ø¥Ã©M,23.4585051,120.6846312
­â¶³©¥,Æ[­µ¦ò¯ª,¹Å¸q¿¤,¹Å¸q¿¤¦Ë±T¶m¼Ì¾ð©W¤å®p§ø¬q¤G¤»¤C¸¹,23.5004285,120.617113
¶iºÖ®c,ºÖ¼w¥¿¯«,¹Å¸q¿¤,¹Å¸q¿¤¦Ë±T¶m¦Ë±T§ø¥Á¥Í§ø°s©±(©M¥­¬q¤@¤T¤C¤­¦a¸¹),23.5181215,120.5462471
¶ê¤s®c,¤ý®]¤j¨Ï,¹Å¸q¿¤,¹Å¸q¿¤³À¯ó¶m³À¯ó¦è¤«§ø1¾F150¸¹,23.4134025,120.3065669
±á¿³¼q,¤W«Ò·Ý,¹Å¸q¿¤,¹Å¸q¿¤¦Ë±T¶m¿c­í«õ©M¥­§ø¤Q¤»¾F¤Q¤K¤§¤@¸¹,23.5179688,120.5493193
·O¤s©¥¬Ó¼w®c¦x,¤T²M¹D¯ª,¹Å¸q¿¤,¹Å¸q¿¤¦Ë±T¶mª@¥­§ø¤E¾F³»®H¤@0¤E¸¹¤§¤@,23.472885,120.567157
¤T¤ô®c,¶¶¤Ñ¸t¥À,¹Å¸q¿¤,¹Å¸q¿¤¦Ë±T¶m¸q¤¯§ø¤E¾F©W³»¤T¤Q¤­¤§¤@¸¹,23.5046758,120.5012978
©¾¿³®c,¤¤¾Â¤¸«Ó,¹Å¸q¿¤,¹Å¸q¿¤¤ô¤W¶m¤¤ÉÜ¤¤ÉÜ§ø12¾F296ªþ1¸¹,23.4213007,120.4381581
¥¿¿³¦x,Æ[­µ¦ò¯ª,¹Å¸q¿¤,¹Å¸q¿¤¤ô¤W¶m¤U¼d§ø5¾F49¸¹,23.4506752,120.4082628
ÆFÀ³¤½¼q,ÆFÀ³¤½,¹Å¸q¿¤,¹Å¸q¿¤¤ô¤W¶m¬h¤lªL¬h¶m§ø1¾F191¸¹,23.4382189,120.4176983
Å@¦w®c,¤Ñ¤W¸t¥À,¹Å¸q¿¤,¹Å¸q¿¤¤»¸}¶m»[ÀY»[ªF§ø226¸¹,23.4917327,120.2950895
¼w¦w®c,¤­¤ý·Ý,¹Å¸q¿¤,¹Å¸q¿¤¤»¸}¶mªL¤º¥jªL§ø112¸¹,23.5323224,120.2627795
ÁéºÖ®c,¤­©²¤d·³,¹Å¸q¿¤,¹Å¸q¿¤³À¯ó¶m¤òÃÉ¦æ¤T¨¤§ø21¾F14¸¹,23.4050055,120.3370883
«O¦w®c,«O¥Í¤W«Ò,¹Å¸q¿¤,¹Å¸q¿¤¦Ë±T¶m³\­í®vÔ±§ø¤K¾F¤K¤§¤@¸¹,23.524292,120.506204
¸Uµ½°ó,¶Â¤t§B¤½,¹Å¸q¿¤,¹Å¸q¿¤¦µ¤l¥«Âù·Ë¤f·Ë¤f¨½1¾F127¤§1¸¹,23.4769925,120.2772325
¦N¦w¦x,³q¤Ñ±Ð¥D,¹Å¸q¿¤,¹Å¸q¿¤¦µ¤l¥«§d¦Ë¤l¸}¼w®a¨½3¾F21¸¹,23.43034,120.24746
´°·ü®c,¤ÑÜ¹¥î«Ò,¹Å¸q¿¤,¹Å¸q¿¤¦µ¤l¥«®r«á¨½5¾F®r«á45¤§1¸¹,23.4453955,120.2292801
¼w¶ê®c,¯«¹A«Ò§g,¹Å¸q¿¤,¹Å¸q¿¤¤ô¤W¶m¤G­«·¾¤j±[§ø17¾F12¸¹,23.4474605,120.3602776
Â{±J¤W¤Ñ®c,¤Ñ¤W¸t¥À,¹Å¸q¿¤,¹Å¸q¿¤¤ô¤W¶m¤¤©M¸ô¤ô¤W§ø5¾F233¸¹,23.4300579,120.398572
©^¦w®c,«°¶ª·Ý,¹Å¸q¿¤,¹Å¸q¿¤¤ô¤W¶m¤ô¤W§ø9¾F78¸¹,23.432943,120.3983459
¥ý¥N¤½¼q,¥ý¥N¤½,¹Å¸q¿¤,¹Å¸q¿¤¤ô¤W¶m¤jÔ³§À¤jÔ³§ø3¾F¬q348¸¹,23.4318462,120.378592
¼sºÖ®c,¤T¤s°ê¤ý,¹Å¸q¿¤,¹Å¸q¿¤³À¯ó¶mÀt¦ò¤s¦Ë¤s§ø11¾F11¸¹,23.3974267,120.2707743
·s¦w®c,«O¥Í¤j«Ò,¹Å¸q¿¤,¹Å¸q¿¤³À¯ó¶m³ÀªF§ø9¾F24¤§3¸¹,23.422711,120.316145
¸tÀÙ®c,ÀÙ¤½¬¡¦ò,¹Å¸q¿¤,¹Å¸q¿¤¤¤®H¶mÆQÀ]§ø11¾F¤Ušj¥J19¸¹,23.429427,120.5402
ÃS´ä¤Ó¸t®c,¤Ñ¤W¸t¥À,¹Å¸q¿¤,¹Å¸q¿¤¥¬³UÂí¦n¬ü¨½10¾F132¸¹,23.352782,120.1416089
Ï}®ü®c,¤Ñ¤W¸t¥À,¹Å¸q¿¤,¹Å¸q¿¤¥¬³UÂí¦n¬ü¨½29¸¹,23.3388259,120.137788
«O¦w®c,¯uªZ¤j«Ò,¹Å¸q¿¤,¹Å¸q¿¤¥¬³UÂí¦Ò¸Õ¼æ¦Ò¸Õ¨½3¾F1¸¹,23.3999119,120.2003197
¸tµ½¦x,ÄÀ­{¦È¥§¦ò,¹Å¸q¿¤,¹Å¸q¿¤¦µ¤l¥«¤j¶m¨½22¾F¤j?·}253¤§32¸¹,23.465708,120.2573609
¤TºÖ®c,ºÖ¼w¥¿¯«,¹Å¸q¿¤,¹Å¸q¿¤¦Ë±T¶m¦Ë±T¬q¥|0¤E¤§¤T¤C¸¹,23.5097319,120.5509636
¶¶¸t®c,¤Ñ¤W¸t¥À,¹Å¸q¿¤,¹Å¸q¿¤¤ô¤W¶m·s­í¥J¤T©M§ø2¾F127¤§3¸¹,23.4542354,120.408975
ÀR¼w¦x,ÄÀ­{¦È¥§¦ò,¹Å¸q¿¤,¹Å¸q¿¤¤ô¤W¶m¤T¬É®H¤T¬É§ø218¸¹,23.4282119,120.4702894
¤¯¤Ñ®c,¤­©²¤d·³,¹Å¸q¿¤,¹Å¸q¿¤¤¤®H¶m¥Ð¼d¥J¸q¤¯§ø14¤§2¸¹,23.446641,120.5227
¨£Às®c,¤­©²¤d·³,¹Å¸q¿¤,¹Å¸q¿¤¥¬³UÂí¤º¥Ð¨£Às¨½14¾F2¤§4¸¹,23.382199,120.178335
¼w¶³¦x,Æ[­µ¦ò¯ª,¹Å¸q¿¤,¹Å¸q¿¤¤¤®H¶mªÀ¤f§ø5¾F¤º®H43¸¹,23.437824,120.571616
·s¶ó¹ÅÀ³¼q,¤EÀs¤T¤½,¹Å¸q¿¤,¹Å¸q¿¤¥¬³UÂí´_¿³¨½17¾F81¸¹,23.3189712,120.161817
¤j¿³®c,«O¥Í¤j«Ò,¹Å¸q¿¤,¹Å¸q¿¤·s´ä¶m¤¤¥¿¸ô¤j¿³§ø12¾F73¸¹,23.5573858,120.3465669
ªZ¸t®c,Ãö¸t«Ò§g,¹Å¸q¿¤,¹Å¸q¿¤¥¬³UÂí¤¤¤s¸ô§Â®ü¨½¤G¤K¤E¸¹,23.379578,120.1499279
ÆF¥úÁI¦x,¦aÂÃ¤ýµÐÂÄ,¹Å¸q¿¤,¹Å¸q¿¤¤¤®H¶m¤U­í¥J¶©¿³§ø¤Q¥|¾F¤G¤Q¤C¤§¤»¸¹,23.434006,120.522197
ºÖ¼w·Ý¼q,ºÖ¼w¥¿¯«,¹Å¸q¿¤,¹Å¸q¿¤·s´ä¶m®üÃs§ø®üÂ×¤l¬q®üÂ×¤p¬q9¾F966¤§1¸¹,23.575312,120.366123
·³¤Æ®c,³¯¸t¤ý®c,¹Å¸q¿¤,¹Å¸q¿¤¥¬³UÂí·H­í¦è¦w¨½63¸¹,23.4143934,120.1796292
­ë¶³¼q,½Ñ©²¤d·³,¹Å¸q¿¤,¹Å¸q¿¤¥¬³UÂíÀs¦¿¨½300¸¹,23.393765,120.16729
¶¶¤Ñ®c,¤Ñ¤W¸t¥À,¹Å¸q¿¤,¹Å¸q¿¤¤¤®H¶m¦ËÀY±TËN¤ô§ø11¾F19¸¹,23.3923982,120.5199163
¸t¤s®c,¤s¦³¯«§g,¹Å¸q¿¤,¹Å¸q¿¤¥¬³UÂíªF´äªF´ä¨½9¾F102¸¹ªþ9,23.376891,120.192483
¶¶¤Ñ®c,¤Ñ¤W¸t¥À,¹Å¸q¿¤,¹Å¸q¿¤³À¯ó¶m³Â¨§©±¤U³Â§ø5¾F5¸¹¤§16¸¹,23.4073289,120.3449414
¤sª¾±[©^¤Ñ®c,¶ý¯ª,¹Å¸q¿¤,¹Å¸q¿¤¦Ë±T¶m¤sª¾±[¸q¶©§ø¥|¾F¤G¤C¤§¤E¸¹,23.5024602,120.5636136
«°¶ª¼q,«°¶ª·Ý,¹Å¸q¿¤,¹Å¸q¿¤³À¯ó¶m­«¼d§ø17¾F96¸¹,23.3945157,120.3158873
ºÖ¿³®c,ºÖ¼w¥¿¯«,¹Å¸q¿¤,¹Å¸q¿¤¦Ë±T¶m³Àº¡§ø¤Q¥|¾F,23.5030161,120.5307881
§gæ£°ó,¤Ñ¤W¸t¥À,¹Å¸q¿¤,¹Å¸q¿¤¤ô¤W¶m¤Q¤@«ü­íÀs¼w§ø5¾F53¤§6¸¹2¼Ó,23.4261849,120.392587
·s¶ó«°¶ª¼q,¦w®ü¤T«°¶ª,¹Å¸q¿¤,¹Å¸q¿¤¥¬³UÂí·s¶ó·s¥Á¨½342¸¹,23.336016,120.162142
ª÷¤ý¤½¼q,ª÷¤ý,¹Å¸q¿¤,¹Å¸q¿¤¦µ¤l¥«¤j¶m¨½8¾F¤j?·}238¸¹¤§1¸¹®Ç,23.4534686,120.2613573
«O¦w®c,¯uªZ¤j«Ò,¹Å¸q¿¤,¹Å¸q¿¤¥¬³UÂí¦Ò¸Õ¨½3¾F1¸¹,23.3991652,120.2009154
¸q¦w®c,¦À©²¤d·³,¹Å¸q¿¤,¹Å¸q¿¤¤¤®H¶m¤¤¥¿¸ô¸q¤¯§ø¤C¤T¢¯¸¹,23.4254402,120.5234767
ªø¦w®c,¥È¤Ñ¤W«Ò,¹Å¸q¿¤,¹Å¸q¿¤¤¤®H¶m¦w®a­í¸q¤¯§ø8¾F7-1¸¹,23.445424,120.520678
ÀsªùºÖ¿³®c,ºÖ¼w¥¿¯«,¹Å¸q¿¤,¹Å¸q¿¤¤¤®H¶mÀsªù§ø¤E¾F,23.420621,120.5091977
·O¦w®c,Æ[­µ¦ò¯ª,¹Å¸q¿¤,¹Å¸q¿¤¤¤®H¶m¦P¤¯§ø¤Q¤K¾F¤G¤Q¤§¤@¸¹,23.4196477,120.4976768
Ä_¤ë®c,ÁÂ©²¤¸«Ó,¹Å¸q¿¤,¹Å¸q¿¤·s´ä¶m¤ë¬Ü¼æ¤ë¼æ§ø16¾F299¸¹,23.524953,120.348944
¹Å¸q¿¤¤¤®H¶m¤T½å®c,¤T¤s°ê¤ý,¹Å¸q¿¤,¹Å¸q¿¤¤¤®H¶m´_¦¬§ø¿³¤Æþ¤¤G¤Q¤T¾F¤»0¤§¤G¸¹,23.4442854,120.4708281
¤»¿³®c,¤Ñ¤W¸t¥À,¹Å¸q¿¤,¹Å¸q¿¤·s´ä¶m·Ë¥_§ø9¾F·Ë¥_65¸¹,23.5105982,120.3365175
¥È«Ò®c,¥È¤Ñ¤W«Ò,¹Å¸q¿¤,¹Å¸q¿¤¤¤®H¶m¤U­í¥J¶©¿³§ø12¾F¤G¸¹,23.434006,120.522197
·s´äªkµØ¦x,¤d¤âÆ[­µ,¹Å¸q¿¤,¹Å¸q¿¤·s´ä¶m¥j¥Áµó®c«e§ø13¾F8«Ñ1¸¹¤§18,23.553331,120.3491032
¸Uµ½¤½¼q,¸Uµ½¤½,¹Å¸q¿¤,¹Å¸q¿¤·s´ä¶m¤j«È¼æ¤j§ø10¾F25¤§1¸¹,23.53292,120.32841
«O¦w®c,«O¥Í¤j«Ò,¹Å¸q¿¤,¹Å¸q¿¤·s´ä¶m®üÃs§ø¼æ©³¤l7¾F6¸¹ªþ5,23.567713,120.36285
Âí¦w®c,ªL©²¤d·³,¹Å¸q¿¤,¹Å¸q¿¤¤¤®H¶m¤¤®H§ø4¾F19¤§1¸¹,23.429427,120.5402
Âí¤Ñ®c,¦¶©²¤d·³,¹Å¸q¿¤,¹Å¸q¿¤¥¬³UÂí·s«n¸ô§Â®ü¨½6¸¹,23.3776906,120.1547141
²M¤s¦x,Æ[­µ¦ò¯ª,¹Å¸q¿¤,¹Å¸q¿¤¤¤®H¶m¤UÉÜ¥JÆQÀ]§ø9¾F7¸¹,23.429427,120.5402
¯à¤¯¦x,ÄÀ­{¦È¥§¦ò,¹Å¸q¿¤,¹Å¸q¿¤¤¤®H¶m·Ë¬w¥JÆQÀ]§ø1¾F5¸¹,23.429427,120.5402
®ü°ê®c,¤­©²¤d·³,¹Å¸q¿¤,¹Å¸q¿¤¥¬³UÂí·s§Â¨½6¾F81¤§1¸¹,23.3833593,120.1707591
·O¸t®c,Æ[­µ¦ò¯ª,¹Å¸q¿¤,¹Å¸q¿¤¤¤®H¶m¦P¤¯§ø¤»¾F¤»¤Q¤T¤§¤@¸¹,23.4196477,120.4976768
ºë©¾¼q,©¨ªZ¿p¤ý,¹Å¸q¿¤,¹Å¸q¿¤·s´ä¶m¤j¼æ§ø10¾F89¸¹,23.5536605,120.3700351
¥Ã¿³®c,«O¥Í¤j«Ò,¹Å¸q¿¤,¹Å¸q¿¤·s´ä¶m¤T¶¡­í¤T¶¡§ø3¾F36¸¹,23.5218513,120.3857555
ºÖ¼w¯¨,ºÖ¼w¥¿¯«,¹Å¸q¿¤,¹Å¸q¿¤·s´ä¶m¦èÉÜ§ø¦èÉÜ2¾F105¸¹ªþ1,23.56354,120.378308
¥È¸t®c,"¥È¤Ñ¤W«Ò,Ãö¸t«Ò§g",¹Å¸q¿¤,¹Å¸q¿¤·s´ä¶m°ñ¤l§ø°ñ¤lÀY1¾F¬q219¸¹,23.588367,120.365817
¶}°Ä®c,¦À©²¤d·³,¹Å¸q¿¤,¹Å¸q¿¤¤¤®H¶m²`§|§ø¤Q¤E¾F,23.3901263,120.5077582
«O¹Ø®c,«O¥Í¤j«Ò,¹Å¸q¿¤,¹Å¸q¿¤·s´ä¶m®üÃs§ø®üÂ×¤l9¾F¬q297¸¹,23.572414,120.366373
Ãö«Ò¼q,Ãö«Ò·Ý,¹Å¸q¿¤,¹Å¸q¿¤¤ô¤W¶m²Ê·Ë§ø8¾F119¸¹,23.434612,120.398138
Às¼w®c,ÁÂ©²¤¸«Ó,¹Å¸q¿¤,¹Å¸q¿¤¤ô¤W¶mÀs¼w§ø1¾F10¸¹,23.425209,120.387244
¤¤®H§ø¸Uµ½¯¨,¸Uµ½¤½,¹Å¸q¿¤,¹Å¸q¿¤¤¤®H¶m¤¤®H§ø15¾F161ªþ7¸¹,23.4255769,120.5227535
¦w©M®c,¤Ñ¤W¸t¥À,¹Å¸q¿¤,¹Å¸q¿¤·s´ä¶mµf±C¦w©M§ø6¾F111¸¹,23.516083,120.310612
¤ô¤ë±g,Æ[¥@­µµÐÂÄ,¹Å¸q¿¤,¹Å¸q¿¤·s´ä¶m³»µæ¶é¦@©M§ø6¾F1¸¹,23.56261,120.323767
¸t¥È®c,¥_·¥¥È¤Ñ¯uªZ¤W«Ò,¹Å¸q¿¤,¹Å¸q¿¤µf¸ô¶m¤U§|§øµæ¤½©±121¸¹,23.463593,120.554266
·O¶³¦x,Æ[­µ¦ò¯ª,¹Å¸q¿¤,¹Å¸q¿¤³À¯ó¶m³»¥b¤Ñ¤U³Â§ø7¾F10¸¹,23.4206481,120.352052
¤TÄ_¤sÆFÄYÁI¦x,ÄÀ­{¦È¥§¦ò,¹Å¸q¿¤,¹Å¸q¿¤¦Ë±T¶m®ç·½§ø¤Q¤T¾F¤@¥|¤C¸¹,23.4746728,120.603016
¼sºÖ®c,¥È¤Ñ¤W«Ò,¹Å¸q¿¤,¹Å¸q¿¤¦Ë±T¶mª÷·à¼dª÷·à§ø¤Q¤@¾F¤T¤Q¤G¸¹,23.515899,120.605589
»ñ¤s®c,ªZ¼w­^«J,¹Å¸q¿¤,¹Å¸q¿¤¤»¸}¶mÆW¤ºÆW¥_§ø11¾F191¸¹,23.503433,120.306761
¶³Às®c,¤­©²¤d·³,¹Å¸q¿¤,¹Å¸q¿¤³À¯ó¶m¥ú¼æ§ø6¾F181¸¹,23.3750482,120.286511
ºÖ¿³®c,ºÖ¼w¥¿¯«,¹Å¸q¿¤,¹Å¸q¿¤¦Ë±T¶m±T¸}ÆW¾ô§ø¤G¤Q¤K¾F¤@¤C¤@¤§¤@¸¹,23.4940326,120.4928649
¼w·½ÁI¦x,ÄÀ­{¦È¥§¦ò,¹Å¸q¿¤,¹Å¸q¿¤¦Ë±T¶m¤U¼d¥J¸q¤¯§ø¤T¾F¥|¤Q¤@¸¹,23.4971095,120.5122331
·s¿³®c,±d¤¸«Ó,¹Å¸q¿¤,¹Å¸q¿¤¤»¸}¶m·s­í¤»¤æ§ø28¸¹,23.542811,120.2863099
¤­ºÖ®c,¤Ñ¾E¤­«Ò,¹Å¸q¿¤,¹Å¸q¿¤¤»¸}¶mÄ¬­í¼dÄ¬­í§ø6¾F143¤§10¸¹,23.5575889,120.2984659
®õ¦w®c,¤­¨¦¸t«Ò,¹Å¸q¿¤,¹Å¸q¿¤³À¯ó¶m³ÀªF§ø227¸¹,23.422711,120.316145
¿³¬w®c,³@©²¤d·³,¹Å¸q¿¤,¹Å¸q¿¤¦Ë±T¶m¤º®H§ø¤Q¤­¾F·Ë¬w¸ô¤G¤Q¤C¸¹,23.4851122,120.5588831
¼z©úªÀ¿ôµ½°ó,Ãö¸t«Ò§g,¹Å¸q¿¤,¹Å¸q¿¤¤Ó«O¥«¤¤¤s¸ô«n·s¨½3¾F1¬q62¸¹,23.495638,120.387712
²M¶³®c,²M¤ô¯ª®v,¹Å¸q¿¤,¹Å¸q¿¤¤Ó«O¥««n·s¨½11¾F¤¤¤s¸ô¤@¬q68«Ñ15¸¹,23.4985294,120.3810371
¦è¦ò¦x,ÄÀ­{¦È¥§¦ò,¹Å¸q¿¤,¹Å¸q¿¤¤j®H¶m¯óÀ­¦è¿³§ø¤­¸¹¤§¤Q¸¹,23.261478,120.587496
¤ß®©¦x,ÄÀ­{¦È¥§¦ò,¹Å¸q¿¤,¹Å¸q¿¤¤j®H¶mÂù·Ë©M¥­§ø¤»¾F¤E¸¹,23.301999,120.5990809
¤¤§|¤j²³¸Uµ½°ó,¤j²³·Ý,¹Å¸q¿¤,¹Å¸q¿¤¤jªLÂí¨F±[¤¤§|¨½4¾F114¤§1¸¹,23.584991,120.493888
ºÖÀÙ®c,¤C¬P®Q®Q,¹Å¸q¿¤,¹Å¸q¿¤¤Ó«O¥«¤Ó«O¨½7¾F150¸¹,23.4627107,120.3334318
ºÖ¦w®c,ºÖ¼w¥¿¯«,¹Å¸q¿¤,¹Å¸q¿¤¤Ó«O¥«¥_·s¨½·Ë©³¼d28¸¹ªþ1,23.50649,120.401616
ªF¿³¼q,¦À©²¤d·³,¹Å¸q¿¤,¹Å¸q¿¤·s´ä¶m¤j¿³¸ô®c«á§ø71¸¹,23.5570502,120.3485033
«O¦w®c,¤T¤s°ê¤ý,¹Å¸q¿¤,¹Å¸q¿¤¤Ó«O¥«´ä§À¨½7¾F³½¼d8¸¹,23.4824756,120.3521286
¸t®¦®c,Æ[­µ¤TµÐÂÄ,¹Å¸q¿¤,¹Å¸q¿¤¤Ó«O¥«°ñ¶m¨½3¾F°ñ³Â¸}53¸¹,23.4857096,120.3892613
¹L·¾«O¦w®c,³¯¥¤¤Ò¤H³¯¹t©h,¹Å¸q¿¤,¹Å¸q¿¤¥¬³UÂí¹L·¾ªF¶ÕÀY187¸¹,23.4148707,120.181852
ªr¬w¦ò¯ª¦x,ªr¬w¤å¦ò,¹Å¸q¿¤,¹Å¸q¿¤¤¤®H¶m«ÈÉÜÆW¼æ§ø¤Q¤»¾F¤Q¤­ªþ¤@¸¹,23.428047,120.556107
ºÖ¥P®c,¤ô¥P´L¤ý,¹Å¸q¿¤,¹Å¸q¿¤¤¤®H¶mÆQÀ]¬q¤G¤T¤G¤§¤C¸¹,23.429427,120.5402
¤ô¥P®c,¤T©x¤j«Ò,¹Å¸q¿¤,¹Å¸q¿¤·s´ä¶mÂÂ«n´ä«n´ä§ø5¾F58¸¹,23.5618626,120.3086863
¤ý·Ý¼q,½Ñ©²¤d·³,¹Å¸q¿¤,¹Å¸q¿¤·s´ä¶m«n´ä§ø¤j±[12¾F5¸¹,23.551935,120.313402
¥È©ú®c,¥È¤Ñ¤W«Ò,¹Å¸q¿¤,¹Å¸q¿¤¤j®H¶m¤j®H¥Ã¼Ö§ø¤G¾F¬q¤»¤­¤C¡B¤»¤­¤K¸¹,23.2987565,120.5908303
¥Õ¶³¦x,Æ[­µ¦ò¯ª,¹Å¸q¿¤,¹Å¸q¿¤¤¤®H¶m¾î§|³»®H§ø1¾F1¸¹,23.405808,120.5400067
¦w«n©²,±i§õ²ö©²¤d·³,¹Å¸q¿¤,¹Å¸q¿¤¥¬³UÂí·s­í¨½81¤§1¸¹,23.3833593,120.1707591
¸qÆF®c,Ãö¸t«Ò§g,¹Å¸q¿¤,¹Å¸q¿¤¤¤®H¶mªÀ¤f§ø¤Q¤­¾F¡]¬q¤»¤@¤K¸¹¡^,23.439397,120.538924
¼w¶³¦x,Æ[­µ¦ò¯ª,¹Å¸q¿¤,¹Å¸q¿¤¤¤®H¶mªÀ¤f§ø¤­¾F¤º®H¥|¤Q¤T¸¹,23.437824,120.571616
¹©·s®c,¤Ñ¤W¸t¥À,¹Å¸q¿¤,¹Å¸q¿¤¤Ó«O¥«¹L·¾¨½1¾F¹L·¾9¸¹,23.4980784,120.3605458
·s¶ó¤j²³·Ý¼q,¤j²³·Ý,¹Å¸q¿¤,¹Å¸q¿¤¥¬³UÂí·s¥Á¬q481¡B482¦a¸¹(·s¥Á¨½18¾F),23.3350836,120.161817
Âí®ü®c,¸³¤¸«Ó·Ý,¹Å¸q¿¤,¹Å¸q¿¤¥¬³UÂí®H¥J­íªF´ä¨½4¸¹,23.3720867,120.1900069
²MµØ¯¨,³¯¿¶®Q,¹Å¸q¿¤,¹Å¸q¿¤¥¬³UÂí·s­í¥J·s­í¨½13¾F65ªþ20¸¹,23.3862014,120.1729084
¸tªL®c,«°¶ª·Ý,¹Å¸q¿¤,¹Å¸q¿¤¥¬³UÂí¾ðªLÀY¾ðªL¨½4¾F29¤§1¸¹,23.4034391,120.2195665
µµ¦Ë¦x,Æ[­µ¦ò¯ª,¹Å¸q¿¤,¹Å¸q¿¤¤¤®H¶mÆW¼æ§ø¤Q¾F¤­¸¹,23.417967,120.578304
©^¤sÀs»ñ°ó,¶¶¤Ñ¸t¥À,¹Å¸q¿¤,¹Å¸q¿¤·s´ä¶m«n´ä«n´ä§ø8¾F185¤§1¸¹,23.5618626,120.3086863
¸É¤Ñ®c,¤k´E®Q®Q,¹Å¸q¿¤,¹Å¸q¿¤·s´ä¶mºÖ¼w¸ôºÖ¼w§ø19¾F140«Ñ7¤§1¸¹,23.5564144,120.3460879
¥_·¥®c,¥È¤Ñ¤W«Ò,¹Å¸q¿¤,¹Å¸q¿¤¤Ó«O¥«±[³»¨½4¾F21¸¹,23.4543834,120.3323959
ÃhÀÙ°ó,Æ[­µ¦ò¯ª,¹Å¸q¿¤,¹Å¸q¿¤·s´ä¶m¼æ¤láY¼æ¤j§ø2¾F10¤§4¸¹,23.542128,120.331896
ªø¤Ñ®c,¤Ñ¤W¸t¥À,¹Å¸q¿¤,¹Å¸q¿¤·s´ä¶mªOÀY­íªOÀY§ø4¾F9¸¹,23.5656306,120.3216471
¥N¤Ñ©²,¤­©²¤d·³,¹Å¸q¿¤,¹Å¸q¿¤·s´ä¶m¤¤¥¿¸ô¤j¿³§ø14¾F115«Ñ10¸¹,23.5593027,120.3460268
¤¬§UºÖ¼w®c,ºÖ¼w¥¿¯«,¹Å¸q¿¤,¹Å¸q¿¤¤jªLÂí¤¬§UªÀ°Ï¤j¬ü¨½17¾F13«Ñ34§Ë35¤§2¸¹,23.5997,120.512657
¤¤ªLºÖ¼w·Ý¼q,ºÖ¼w·Ý,¹Å¸q¿¤,¹Å¸q¿¤¤jªLÂí¤¤ªL¨½20¾F126¸¹,23.5983429,120.4687723
´Â¶Ç®c,¤Ñ¤W¸t¥À,¹Å¸q¿¤,¹Å¸q¿¤¤jªLÂí¥Ì½©±[©ú©M¨½3¾F72¸¹,23.6093752,120.4463637
«O¦w®c,¥È¤Ñ¤W«Ò,¹Å¸q¿¤,¹Å¸q¿¤¤jªLÂíªL¤lÀY¤T©M¨½1¾F12¸¹,23.6001395,120.4913132
µµ¥È«O®c,¥È¤Ñ¤W«Ò,¹Å¸q¿¤,¹Å¸q¿¤¤jªLÂí¤U°ñÀY©úµØ¨½12¾F83¸¹,23.596953,120.435216
¬L¼yÁI¦x,ÄÀ­{¦È¥§¦ò,¹Å¸q¿¤,¹Å¸q¿¤¤jªLÂí¤¤¥¿¸ô©úµØ¨½41¸¹,23.596886,120.4462677
¤Ñ§º®c,¤Ñ§º¶ý,¹Å¸q¿¤,¹Å¸q¿¤·Ë¤f¶m¤û®H¼d´åªF§ø14¾F1¸¹,23.622752,120.406754
¦wªL®c,¥Ð³£¤¸«Ó·Ý,¹Å¸q¿¤,¹Å¸q¿¤¤jªLÂí³»­ûªL¤WªL¨½10¾F44¸¹¤§1,23.5814524,120.472068
¤j¬üÀÙ¤½°|,ÀÙ¤½¬¡¦ò,¹Å¸q¿¤,¹Å¸q¿¤¤jªLÂí¤j®H¬ü¤j¬ü¨½11¾F208¸¹,23.6007399,120.5048298
«O¦w®c,«O¥Í¤j«Ò,¹Å¸q¿¤,¹Å¸q¿¤¤Ó«O¥«ÂÂ°ñ¨½13¾F126¸¹,23.4616215,120.3343973
¤ô¸·­í¥N¤Ñ©²,¤­©²¤d·³,¹Å¸q¿¤,¹Å¸q¿¤¤Ó«O¥«¤¯·R¸ô«n·s¨½3¾F116«Ñ3¸¹,23.496764,120.3880987
®õ¹ç®c,¤Ñ¤W¸t¥À,¹Å¸q¿¤,¹Å¸q¿¤¤jªLÂí¤j®H¬ü¤j¬ü¨½14¾F141¸¹,23.6007303,120.5047675
¸Uµ½¼q,ºÖ¼w¥¿¯«,¹Å¸q¿¤,¹Å¸q¿¤¦µ¤l¥««n³q¸ô¦Ë³ò¨½16¾F¤T¬q386¸¹,23.4574466,120.2433867
ª÷µê®c,¥È¤Ñ¤W«Ò,¹Å¸q¿¤,¹Å¸q¿¤¤jªLÂí´ò¤l¤T§ø¨½7¾F16¤§3¸¹,23.617085,120.467568
¤ÑªZ®c,¥È¤Ñ¤W«Ò,¹Å¸q¿¤,¹Å¸q¿¤¤jªLÂí¾ô¤lÀY¤T§ø¨½3¾F7¸¹,23.624286,120.46769
¤Ñ¤½¼q,µL·¥¦Ñ¥À©ú©ú¤W«Ò,¹Å¸q¿¤,¹Å¸q¿¤·Ë¤f¶m®ãªL§ø33¤§¤@¸¹,23.606515,120.369708
·OÄ±°ó,¦è¤ýª÷¥À,¹Å¸q¿¤,¹Å¸q¿¤·Ë¤f¶m­í¤l¥»­í§ø3¾F30¤§3¸¹,23.567219,120.402193
¦wÁø®c,¶}ºs¸t¤ý,¹Å¸q¿¤,¹Å¸q¿¤¤jªLÂí¤¯·R¸ô¦èªL¨½9¾F2¸¹,23.6031276,120.4548289
«O¸t®c,«O¥Í¤j«Ò,¹Å¸q¿¤,¹Å¸q¿¤·Ë¤f¶m¬h·¾§ø16¾F36¤§1¸¹,23.5767314,120.4137976
·OÀÙ®c,«O¥Í¤j«Ò,¹Å¸q¿¤,¹Å¸q¿¤·Ë¤f¶m´åªF§ø10¾F73¸¹,23.620138,120.40558
¸tºÖ®c,ºÖ¼w¥¿¯«,¹Å¸q¿¤,¹Å¸q¿¤¦µ¤l¥«¤j¶m¨½17¾F¤j?·}466¸¹,23.4581618,120.2624729
¥_¤Ñ®c,¥È¤Ñ¤W«Ò,¹Å¸q¿¤,¹Å¸q¿¤¦µ¤l¥«·sÉÜ¨½1¾F·sÉÜ10¸¹,23.4230437,120.2666093
«°¶ª®c,«°¶ª,¹Å¸q¿¤,¹Å¸q¿¤¦µ¤l¥«ªF¦w¼d¨Î¥Ý¨½7¾F10¸¹,23.446566,120.252612
¥Ã¦w®c,¤­©²¤ý·Ý,¹Å¸q¿¤,¹Å¸q¿¤¦µ¤l¥«À³µæ®H¥Ã©M¨½8¾F79¤§2¸¹,23.4633593,120.2323165
«ÈÉÜ¸q¿³®c,¤g¦a¤½±C,¹Å¸q¿¤,¹Å¸q¿¤µf¸ô¶mµf¸ô¥Á©M§ø«ÈÉÜ¤K¾F¡]¬q¤G¤G¤T¤§¤T¸¹¡^,23.4584844,120.5841681
°]¹Îªk¤H¥xÆW¬Ù¹Å¸q¿¤¦µ¤l°t¤Ñ®c,¤Ñ¤W¸t¥À,¹Å¸q¿¤,¹Å¸q¿¤¦µ¤l¥«¶}¤¸¸ô¶}¤¸¨½¤»¾F¤@¤@¤K¸¹,23.4678564,120.2451789
¤jµØ®c,§d©²¤d·³,¹Å¸q¿¤,¹Å¸q¿¤¦µ¤l¥««n¶Õ¦Ë«n¦Ë¨½3¾F29¸¹,23.4145985,120.2426185
Âí¦w®c,Æ[­µ¦ò¯ª,¹Å¸q¿¤,¹Å¸q¿¤¤jªLÂí¤ô¸P¤T©M¨½10¾F44¸¹,23.603931,120.471178
¤Ñ¼wÄ_®c,Ãö¸t«Ò§g,¹Å¸q¿¤,¹Å¸q¿¤¤jªLÂí¤¤¤s¸ô¦èªL¨½269¸¹,23.60735,120.454991
°]¹Îªk¤H¥xÆW¬Ù¹Å¸q¿¤¦µ¤l°ª©ú¦x,ÄÀ­{¦È¥§¦ò,¹Å¸q¿¤,¹Å¸q¿¤¦µ¤l¥«¤s³q¸ô¤å¤Æ¨½15¾F73¸¹,23.4647469,120.2439334
ºÖ¥È®c,"¥È¤Ñ¤W«Ò,¦À©²¤d·³,ºÖ¼w¥¿¯«",¹Å¸q¿¤,¹Å¸q¿¤·Ë¤f¶m®ãªL§ø7¾F85¸¹,23.602444,120.37445
·O¼w¦x,Æ[­µ¦ò¯ª,¹Å¸q¿¤,¹Å¸q¿¤·Ë¤f¶m¥ÁÅvµó·Ë¥_§ø14¾F24¸¹,23.6061689,120.397177
¥N¶³¦x,«nµL¥»®vÄÀ­{¦È¥§¦ò,¹Å¸q¿¤,¹Å¸q¿¤·Ë¤f¶m´åªF´åªF§ø13¾F58¸¹,23.617458,120.401878
¹F¿iÁIª½«ü¤ß¶é,ÄÀ­{¦È¥§¦ò,¹Å¸q¿¤,¹Å¸q¿¤¤j®H¶m¥ÛÚÆ¤º©M¥­§ø¤T¸¹,23.302987,120.622194
¤jµo¦x,¤Ó¤l·Ý,¹Å¸q¿¤,¹Å¸q¿¤¦µ¤l¥«§d¦Ë¤l¸}¼w®a¨½6¾F53¸¹,23.4253589,120.2452222
¼w©MÁI¦x,ÄÀ­{¦È¥§¦ò,¹Å¸q¿¤,¹Å¸q¿¤¥Á¶¯¶m¤¤ÉÜªFºa§ø3¾F25¸¹,23.557594,120.43191
·O¤Æ¦x,¦w·Ë¸³¤½¯u¤H,¹Å¸q¿¤,¹Å¸q¿¤¸q¦Ë¶m¤»®Û§ø220¤§1¸¹,23.33441,120.24435
¹Ø¤Ñ®c,¥È¤Ñ¤W«Ò,¹Å¸q¿¤,¹Å¸q¿¤¥Á¶¯¶m·Ë©³?¤T¿³§ø8¾F6¸¹,23.5701091,120.4774111
¤EÀs¤sºÖ¥¿µ½°ó,¹D¼w¤Ñ´L,¹Å¸q¿¤,¹Å¸q¿¤µf¸ô¶m³»¨¤¥J¦¿¦è§ø¤­¾F¤T¤@¤§¤@¸¹,23.475363,120.52196
·O¶³«F,Æ[¥@­µµÐÂÄ,¹Å¸q¿¤,¹Å¸q¿¤¥Á¶¯¶m¦Ë¤l¸}¦è©÷§ø6¾F1¸¹,23.5456185,120.3821886
ªQ©²¤¸«Ó¼q,ªQ©²¤¸«Ó,¹Å¸q¿¤,¹Å¸q¿¤¸q¦Ë¶m¦Ë³ò¤p¬qÀY¦Ë³ò¬q987¦a¸¹,23.3362484,120.2433472
¹Å¸q¿¤¥Á¶¯¶m¼y¸Û®c,¤Ñ¤W¸t¥À,¹Å¸q¿¤,¹Å¸q¿¤¥Á¶¯¶m¤¤¼Ö¸ô¤¤¼Ö§ø64¸¹,23.5564004,120.4295836
®ü®¦²b¦x,ÄÀ­{¦È¥§¦ò,¹Å¸q¿¤,¹Å¸q¿¤¥Á¶¯¶mªQ¤l¸}ªQ¤s§ø¤G¤Q¤C¸¹¤§¤G,23.5400605,120.4749655
¥Ð³£©²,¥Ð³£¤¸«Ó,¹Å¸q¿¤,¹Å¸q¿¤¸q¦Ë¶m©¤¸}§ø50¸¹,23.347468,120.25752
¤Ñ«n®c,Æ[­µ¦ò¯ª,¹Å¸q¿¤,¹Å¸q¿¤¤¤®H¶m©M·ü§ø17¾F(©M·Ë¬q¤@0¤T¦a¸¹),23.4513416,120.4639256
«C¥Ð¦x,Æ[­µ¦ò¯ª,¹Å¸q¿¤,¹Å¸q¿¤¦µ¤l¥«¤å¤Æ¨½16¾F«n³q¸ô¤T¬q782¸¹,23.4636431,120.2431128
¤s¦è®c,¤s¦è¤Ò¤l,¹Å¸q¿¤,¹Å¸q¿¤¦µ¤l¥«Àn¥À¼d¦Ë§ø¨½8¾F90¸¹,23.4349834,120.2394779
¥Á¦w­â®dÄ_·µ,Æ[­µ¤j¤h,¹Å¸q¿¤,¹Å¸q¿¤¥Á¶¯¶m«Ø°ê¸ô¤@¬qªFºa§ø7¾F95«Ñ73¤§1¸¹,23.5561943,120.4336077
Æ[­µÁI¦x,«nµL¥»®vÄÀ­{¦È¥§¦ò,¹Å¸q¿¤,¹Å¸q¿¤¥Á¶¯¶m¼d³»§ø3¾F67¸¹,23.5727049,120.4211373
¸t¤½¸t¶ý¼q,¸t¤½¸t¶ý,¹Å¸q¿¤,¹Å¸q¿¤¥Á¶¯¶m¤¤¼Ö§ø11¾F¡£¥Á¥_¬q210¦a¸¹¡¤,23.5562271,120.4284085
¤Ñ¦Z®c,¤Ñ¤W¸t¥À,¹Å¸q¿¤,¹Å¸q¿¤·Ë¤f¶mªü³sÉÜ¬h·¾§ø4¾F35¸¹,23.5914899,120.4221373
¶i¿³®c,¤Ó¤l·Ý,¹Å¸q¿¤,¹Å¸q¿¤µf¸ô¶m¤U§|§ø¤C¾F¤­¤§¤@¸¹,23.472977,120.5353
·ËÀs®c,¥È¤Ñ¤W«Ò,¹Å¸q¿¤,¹Å¸q¿¤¥Á¶¯¶m·Ë©³¼d¨qªL§ø13¾F5¸¹,23.5083457,120.4686334
¶}¤s¼q,¾G¦¨¥\,¹Å¸q¿¤,¹Å¸q¿¤¥Á¶¯¶mÂí¥_§ø7¾F20¸¹,23.5766936,120.4503515
¥È¸t®c,¤Ñ¤W¸t¥À,¹Å¸q¿¤,¹Å¸q¿¤¥Á¶¯¶m¸­¤l¼dªF¿³§ø23¸¹,23.556261,120.500745
«O¥Í¤j«Ò¼q,«O¥Í¤j«Ò,¹Å¸q¿¤,¹Å¸q¿¤¥Á¶¯¶m¥Á±Ú¸ô¦è¦w§ø19¾F54¸¹,23.5556314,120.4286483
Â×«p®c,ºÖ¼w¥¿¯«,¹Å¸q¿¤,¹Å¸q¿¤¥Á¶¯¶m¦¿­í©±¿³¤¤§ø1¾F¸q¾ô¡£¬q¤­¥|¤T¦a¸¹¡¤,23.5268849,120.42081
ºÖ¼w·Ý¼q,ºÖ¼w¥¿¯«,¹Å¸q¿¤,¹Å¸q¿¤¸q¦Ë¶m·sÉÜªF¥ú§ø12¾F9¸¹,23.37015,120.249647
¦p·N®c,¤T²M¹D¯ª,¹Å¸q¿¤,¹Å¸q¿¤¥Á¶¯¶m¤j¥C¶é¤j±T§ø5¾F11¤§6¸¹,23.5273988,120.4665748
¥ÈªZ®c,¥È¤Ñ¤W«Ò,¹Å¸q¿¤,¹Å¸q¿¤¥Á¶¯¶mµf¥J·¾¥­©M§ø6¾F13¤§1¸¹,23.5548055,120.4337233
¥_¤Ñ®c,¥È¤Ñ¤W«Ò,¹Å¸q¿¤,¹Å¸q¿¤¥Á¶¯¶m¤º®H¥J¤j±T§ø8¾F28¤§2¸¹,23.521513,120.4406276
¸q¤¯¸Uµ½¯¨,¸Uµ½·Ý,¹Å¸q¿¤,¹Å¸q¿¤¤¤®H¶m¾ðÀY®H¸q¤¯§ø¤Q¤T¾F¬q¤T¤»¤@¦a¸¹,23.442909,120.5130025
¥Ã¹Ø®c,ªQ¾ð´L¤ý,¹Å¸q¿¤,¹Å¸q¿¤¤jªLÂí¤¤ªL¤¤ªL¨½7¾F48¸¹,23.5979317,120.4693453
¤jªL¶¶¤Ñ®c,¥È¤Ñ¤W«Ò,¹Å¸q¿¤,¹Å¸q¿¤¤jªLÂí¤T¨¤¤T¨¤¨½4¾F38¸¹,23.6281218,120.4991476
¶©¤Ñ®c,¤ý·Ý®c (¹p©²¤d·³),¹Å¸q¿¤,¹Å¸q¿¤¤jªLÂí¤T¶ô­í¸q©M¨½2¾F15¸¹,23.6141818,120.4839183
°]¹Îªk¤H¥xÆW¬Ù¹Å¸q¿¤¸q¼w¦x,ÄÀ­{¦È¥§¦ò,¹Å¸q¿¤,¹Å¸q¿¤µf¸ô¶m¥Y´ò¤ºÂ|§ø¤­¸¹,23.4595777,120.5230662
¥_·¥·µ,¥È¤Ñ¤W«Ò,¹Å¸q¿¤,¹Å¸q¿¤·Ë¤f¶m¤¤¥¿¸ô·Ë¦è§ø¤T¾F182¸¹,23.6032843,120.394865
Às¤ô®c,²ø¥¤¤Ò¤H,¹Å¸q¿¤,¹Å¸q¿¤¦µ¤l¥«¦wºÖ¨½21¾F¤Ñ¬P·s§ø34¤§1¸¹,23.467245,120.2553911
¥ÃºÖ®c,¤T¤s°ê¤ý,¹Å¸q¿¤,¹Å¸q¿¤·s´ä¶m¥j¥Á§ø10¾F159¸¹,23.563904,120.3536396
ªk®ü²b¦x,ÄÀ­{¦È¥§¦ò,¹Å¸q¿¤,¹Å¸q¿¤·s´ä¶mµf±C¦w©M§ø8¾F123¤§3¸¹,23.516083,120.310612
¶ê¥ú¦x,ÄÀ­{¦È¥§¦ò,¹Å¸q¿¤,¹Å¸q¿¤¦µ¤l¥«¤K¼w¸ô¥Ã©M¨½4¾F340¸¹,23.4628988,120.2358804
´¶¦w®c,¥È¤Ñ¤W«Ò,¹Å¸q¿¤,¹Å¸q¿¤¥Á¶¯¶mªL¤l§À¨qªL§ø4¾F4l¸¹,23.51124,120.474137
¥¬§B¤½¼q,ºÖ¼w¥¿¯«,¹Å¸q¿¤,¹Å¸q¿¤¦µ¤l¥«®ü³q¸ô¥­©M¨½2¤§42¸¹,23.4641525,120.2482036
«n·¥¥N¤Ñ®c,¦À©²¤d·³,¹Å¸q¿¤,¹Å¸q¿¤¦µ¤l¥«·sÉÜ¨½7¾F·sÉÜ¬q¹Aªª¤p¬q463¸¹,23.4268361,120.2621892
¦n¹Å®c,«O¥Í¤j«Ò,¹Å¸q¿¤,¹Å¸q¿¤¥Á¶¯¶m³»©±¥J¥­©M§ø1¾F7¤§1¸¹,23.5547232,120.4338255
¤Ó¤l®c,ÃQ¤ý·Ý,¹Å¸q¿¤,¹Å¸q¿¤¦µ¤l¥«­W¥Ê¼d¨Î¥Ý¨½1¾F42¤§6¸¹®Ç,23.450353,120.257113
¥É¤ÑªùÂí¤Ñ®c,¤­©²¤d·³,¹Å¸q¿¤,¹Å¸q¿¤µf¸ô¶m¤U§|§ø¤C¾F¤K¸¹,23.468599,120.547048
¸Uµ½¤½¯¨,¸U©m¤½,¹Å¸q¿¤,¹Å¸q¿¤µf¸ô¶m¤U§|§ø¤@¾F½²¤½©±¤@¤§¤@¸¹,23.4643682,120.553248
ºÖ¦w¯¨,¤j²³·Ý,¹Å¸q¿¤,¹Å¸q¿¤¥Á¶¯¶mÂùºÖ§ø¡£Àn¥À?¬qÀn¥À?¤p¬q161¸¹¤§4¡¤,23.5357206,120.4401145
¦ËÁI¦x,©g¸t®Q®Q,¹Å¸q¿¤,¹Å¸q¿¤¸q¦Ë¶m¤»®Û§ø207¤§1¸¹,23.3374753,120.2444454
°]¹Îªk¤H¥xÆW¬Ù¹Å¸q¿¤¸q¦Ë¶m´¶·Ó¦x,ÄÀ­{¦È¥§¦ò,¹Å¸q¿¤,¹Å¸q¿¤¸q¦Ë¶mÀsµë§ø¤Q¾F¤@¤K¥|¸¹,23.37229,120.2218839
°]¹Îªk¤H¥xÆW¬Ù¹Å¸q¿¤¥Á¶¯¶m¤j¤h·Ý¼q,Æ[­µµÐÂÄ,¹Å¸q¿¤,¹Å¸q¿¤¥Á¶¯¶m¤¤¼Ö¸ô¤¤¼Ö§ø¤K¤Q¤@¸¹,23.5561219,120.4295736
¤W¤É®c,¥È¤Ñ¤W«Ò,¹Å¸q¿¤,¹Å¸q¿¤¥Á¶¯¶mªQ¤l¸}ªQ¤s§ø4¾F43¸¹,23.5400353,120.4751985
¤d·³®c,¦À©²¤d·³,¹Å¸q¿¤,¹Å¸q¿¤¸q¦Ë¶m¹L¤l¸ô¦è¹L§ø15¾F305¸¹,23.305571,120.200901
Âí¦w®c,¤­©²¤d·³,¹Å¸q¿¤,¹Å¸q¿¤¸q¦Ë¶m«áÂí§ø2¾F17¤§1¸¹,23.3658632,120.2102182
Às¿³¼q,¤­©²¤d·³,¹Å¸q¿¤,¹Å¸q¿¤¸q¦Ë¶mÀsµë¼æ¬q145¤§0¸¹,23.37229,120.2218839
·sºÖ®c,«O¥Í¤j«Ò,¹Å¸q¿¤,¹Å¸q¿¤¥Á¶¯¶m¥_¶Õ¤l¥_¤æ§ø6¾F67¸¹,23.5344597,120.4602183
ªü¨½¤s¦x,ÄÀ­{¦È¥§¦ò,¹Å¸q¿¤,¹Å¸q¿¤µf¸ô¶mÀsÀY¤½¥Ð§ø2¾F15-5¸¹,23.4497473,120.6675345
ºÖ¿³®c,¯«¹A¸t«Ò,¹Å¸q¿¤,¹Å¸q¿¤¤Ó«O¥«±ö®H¨½14¾F7¤§1¸¹,23.441913,120.34023
¥­¦w®c,¤T¤s°ê¤ý,¹Å¸q¿¤,¹Å¸q¿¤¤Ó«O¥««e¼æ¨½«á¼æ10¾F110¸¹,23.4610249,120.3330682
¤T¤ý©²,¤T¤ý·Ý,¹Å¸q¿¤,¹Å¸q¿¤¤Ó«O¥«·s°ñ¨½1¾F·s°ñ¬q·s°ñ¤p¬q448¸¹,23.4930954,120.3377892
¤­½\¤ý¼q,¤­½\¸t«Ò,¹Å¸q¿¤,¹Å¸q¿¤¥Á¶¯¶màT¦¬§ø¥|¾F¤T¤Q¤K¸¹,23.5619951,120.450493
©¾¸q¤½¼q,©¾¸q¤½,¹Å¸q¿¤,¹Å¸q¿¤¥Á¶¯¶m©¾¸qµóª÷¿³§ø22¾F140¤§1¸¹,23.5178819,120.440061
¤g¦a¤½¼q,¯«¹A¸t«Ò,¹Å¸q¿¤,¹Å¸q¿¤¥Á¶¯¶mµ×®H§ø107¸¹,23.5568597,120.3987462
«O¦w®c,§õ©²¤d·³,¹Å¸q¿¤,¹Å¸q¿¤¸q¦Ë¶m·s´I§ø5¾F44¸¹,23.321431,120.219443
¼sÀÙ®c,¦À¤ý·Ý,¹Å¸q¿¤,¹Å¸q¿¤¥Á¶¯¶m¤û¤æ¤s¤s¤¤§ø6¾F78¸¹,23.5214218,120.4203899
«O¦w®c,«O¥Í¤j«Ò,¹Å¸q¿¤,¹Å¸q¿¤¥Á¶¯¶mªÀ·¾¤¤©M§ø2¾F38¸¹,23.5466972,120.4122148
¥N¤Ñ°|,¤­©²¤d·³,¹Å¸q¿¤,¹Å¸q¿¤¸q¦Ë¶m¤­­í§ø8¾F18¤§1¸¹,23.354278,120.273413
¼s¿³®c,¥È¤Ñ¤W«Ò,¹Å¸q¿¤,¹Å¸q¿¤¥Á¶¯¶m¤û¸Y·ËºÖ¿³§ø6¾F60¸¹,23.5105432,120.4263305
¤T¥D®c,Æ[­µ¦ò¯ª,¹Å¸q¿¤,¹Å¸q¿¤¥Á¶¯¶m³»¼d¼d³»§ø1¾F59¤§1¸¹,23.5709722,120.4269229
¥È¸t®c,¶}ºs¸t¤ý,¹Å¸q¿¤,¹Å¸q¿¤¥Á¶¯¶mÂù´©¥­©M§ø4¾F16¤§1¸¹,23.548589,120.390416
·Oµ½®c,Æ[­µ¦ò¯ª,¹Å¸q¿¤,¹Å¸q¿¤·Ë¤f¶m´åªF§ø9¾F¡]´å­í¬q´åªF¤p¬q814¸¹¡^,23.620138,120.40558
¥»ÆU¤j«Ò®c,«O¥Í¤j«Ò,¹Å¸q¿¤,¹Å¸q¿¤·Ë¤f¶m¥»ÆU¥»­í§ø9¾F60¸¹,23.579434,120.387785
¤Ó¤l®c,¤Ó¤l¤¸«Ó,¹Å¸q¿¤,¹Å¸q¿¤µf¸ô¶m³»¦v¥J¦¿¦è§ø¤C¾F(¤ºÂ|¬q¤G¤G¤C¤§¤@¦a¸¹),23.4764902,120.5224945
¤j©ú·µ,¯uªZ¤j«Ò,¹Å¸q¿¤,¹Å¸q¿¤¥Á¶¯¶m¤¤ÉÜªFºa§ø2¾F19¸¹¤§1,23.5566687,120.4349062
¾_«n®c,Ãö¸t«Ò§g,¹Å¸q¿¤,¹Å¸q¿¤¤ô¤W¶m·Ë¥J©³¤º·Ë§ø7¾F13¸¹,23.436694,120.42988
¯uªZ¼q,¯uªZ¤j«Ò,¹Å¸q¿¤,¹Å¸q¿¤¥¬³UÂí¶QªÙ¨½¶QªÙ72¸¹,23.426039,120.211687
¥È¤Ñ®c,¥È¤Ñ¤W«Ò,¹Å¸q¿¤,¹Å¸q¿¤¤»¸}¶m¤j¶î®v¶î®v§ø1¾F1¤§1¸¹,23.506612,120.282863
·O¼w¦x,²M¤ô¯ª®v¤½,¹Å¸q¿¤,¹Å¸q¿¤³À¯ó¶mªQ¦Ë§ø4¾F33¸¹,23.395685,120.2919229
¼y¶³®c,±d»¯¤¸«Ó,¹Å¸q¿¤,¹Å¸q¿¤¦Ë±T¶míB¥J¼d¤å®p§ø¥|¾F¤Q¥|¤§¤G¸¹,23.513856,120.594109
ÆW¾ô¥_·¥·µ,¥È¤Ñ¤W«Ò,¹Å¸q¿¤,¹Å¸q¿¤¦Ë±T¶mÆW¾ô§ø¤G¤Q¾F¤G¤»¤»¸¹,23.491565,120.5046381
¦w¥@®c,¶}¥x¸t¤ý,¹Å¸q¿¤,¹Å¸q¿¤¦Ë±T¶m¸q©M§ø¤G¾F¤G¤Q¤»¸¹,23.5079254,120.4989863
ÀR¼{¦x,ÄÀ­{¦È¥§¦ò,¹Å¸q¿¤,¹Å¸q¿¤¤¤®H¶mËN¤ô§ø¤E¾FÀY±T¤C¤§¤­¸¹,23.389028,120.51958
ªZ¸t®c,Ãö¸t«Ò§g,¹Å¸q¿¤,¹Å¸q¿¤¥¬³UÂí¤¤¤s¸ô§Â®ü¨½289¸¹,23.379578,120.1499279
°]¹Îªk¤H»OÆW¬Ù¹Å¸q¿¤·s´ä¶m¤¤¬v§ø¥_·¥¥È¤Ñ®c,¥_·¥¥È¤Ñ¤W«Ò,¹Å¸q¿¤,¹Å¸q¿¤·s´ä¶m¤¤¬v¤l¤¤¬v§ø4¾F81¤§1¸¹,23.526838,120.370421
ºÖ¥È®c,¤g¦a¤½,¹Å¸q¿¤,¹Å¸q¿¤¤jªLÂí¤j®H¬ü¬q587¦a¸¹,23.6050318,120.4778165
´Â¤Ñ«n¦w®c,¾¤¤s¦Ñ¥À,¹Å¸q¿¤,¹Å¸q¿¤µf¸ô¶mñF¤l¸}¬qñF¤l¸}¤p¬q¤K¥|¤§¥|¦a¸¹,23.457658,120.525978
¼y¦w®c,§õ©²¤d·³,¹Å¸q¿¤,¹Å¸q¿¤¸q¦Ë¶m¤U¼dÀY¦Ë§ø20¾F1¸¹,23.336116,120.231072
¤EÀs¤sÀÙ¤½ÁI¦x,ÀÙ¤½,¹Å¸q¿¤,¹Å¸q¿¤¥Á¶¯¶m¤º®H¥J¤j±T§ø7¸¹,23.5151489,120.4871826
ÅK³ò¤s¦æ©²¼q,µJ­±¤j¤h,¹Å¸q¿¤,¹Å¸q¿¤¥Á¶¯¶m«Ø°ê¸ô¤å¶©§ø17¾F¤G¬q187¤§94¸¹,23.5225154,120.4406435
¿³«n©²,¤­©²¤d·³,¹Å¸q¿¤,¹Å¸q¿¤¥Á¶¯¶m¤Q¥|¥Ò¤j±T§ø12¾F398¸¹,23.5107472,120.4657132
¥È¼w®c,¥È¤Ñ¤W«Ò,¹Å¸q¿¤,¹Å¸q¿¤¥Á¶¯¶mÀn¥À?¤å¶©§ø10¾F47¸¹,23.538585,120.42148
°]¹Îªk¤H¥Á¶¯±Ð·|»E·|©Ò,°]¹Îªk¤H¥Á¶¯±Ð·|»E·|©Ò,¹Å¸q¿¤,¹Å¸q¿¤¥Á¶¯¶m«Ø°ê¸ô¤G¬q185¤§4¸¹,23.5382761,120.4354061
°]¹Îªk¤H¤¤µØ°ò·þ±Ð¥Á¥Í®û«H·|,°]¹Îªk¤H¤¤µØ°ò·þ±Ð¥Á¥Í®û«H·|,¹Å¸q¿¤,¹Å¸q¿¤¤ô¤W¶m¦¨¥\µó¥Á¥Í§ø13¾F7«Ñ22¸¹,23.4488628,120.4343757
°]¹Îªk¤H¥xÆW¬Ù¹Å¸q¿¤¦µ¤l±Ð·|»E·|©Ò,°]¹Îªk¤H¥xÆW¬Ù¹Å¸q¿¤¦µ¤l±Ð·|»E·|©Ò,¹Å¸q¿¤,¹Å¸q¿¤¦µ¤l¥«¤s³q¸ô1¤§34¸¹,23.4667822,120.2510941
°]¹Îªk¤H¦µ¤l°ò·þ±Ð®ûÂ§¸t¸g·|,°]¹Îªk¤H¦µ¤l°ò·þ±Ð®ûÂ§¸t¸g·|,¹Å¸q¿¤,¹Å¸q¿¤¦µ¤l¥«¶}¤¸¸ô83¸¹,23.4678231,120.2457091
